{"type": "FeatureCollection", "features": [{"type": "Feature", "geometry": {"type": "Point", "coordinates": [-0.09179, 51.51689]}, "properties": {"cell": "E532_N181", "weight": 186.33}}, {"type": "Feature", "geometry": {"type": "Point", "coordinates": [0.08226, 51.54091]}, "properties": {"cell": "E544_N184", "weight": 108.33}}, {"type": "Feature", "geometry": {"type": "Point", "coordinates": [0.15473, 51.54859]}, "properties": {"cell": "E549_N185", "weight": 38.33}}, {"type": "Feature", "geometry": {"type": "Point", "coordinates": [0.11192, 51.55836]}, "properties": {"cell": "E546_N186", "weight": 89.33}}, {"type": "Feature", "geometry": {"type": "Point", "coordinates": [0.14201, 51.5848]}, "properties": {"cell": "E548_N189", "weight": 32.67}}, {"type": "Feature", "geometry": {"type": "Point", "coordinates": [0.16957, 51.55731]}, "properties": {"cell": "E550_N186", "weight": 45.0}}, {"type": "Feature", "geometry": {"type": "Point", "coordinates": [0.11067, 51.53141]}, "properties": {"cell": "E546_N183", "weight": 35.33}}, {"type": "Feature", "geometry": {"type": "Point", "coordinates": [0.08185, 51.53192]}, "properties": {"cell": "E544_N183", "weight": 71.33}}, {"type": "Feature", "geometry": {"type": "Point", "coordinates": [0.1399, 51.53987]}, "properties": {"cell": "E548_N184", "weight": 46.33}}, {"type": "Feature", "geometry": {"type": "Point", "coordinates": [0.15516, 51.55758]}, "properties": {"cell": "E549_N186", "weight": 52.67}}, {"type": "Feature", "geometry": {"type": "Point", "coordinates": [0.09667, 51.54065]}, "properties": {"cell": "E545_N184", "weight": 25.33}}, {"type": "Feature", "geometry": {"type": "Point", "coordinates": [0.12549, 51.54013]}, "properties": {"cell": "E547_N184", "weight": 41.0}}, {"type": "Feature", "geometry": {"type": "Point", "coordinates": [0.14032, 51.54886]}, "properties": {"cell": "E548_N185", "weight": 43.0}}, {"type": "Feature", "geometry": {"type": "Point", "coordinates": [0.15346, 51.52164]}, "properties": {"cell": "E549_N182", "weight": 50.33}}, {"type": "Feature", "geometry": {"type": "Point", "coordinates": [0.12466, 51.52216]}, "properties": {"cell": "E547_N182", "weight": 51.33}}, {"type": "Feature", "geometry": {"type": "Point", "coordinates": [0.14074, 51.55784]}, "properties": {"cell": "E548_N186", "weight": 32.0}}, {"type": "Feature", "geometry": {"type": "Point", "coordinates": [0.16872, 51.53934]}, "properties": {"cell": "E550_N184", "weight": 53.33}}, {"type": "Feature", "geometry": {"type": "Point", "coordinates": [0.14117, 51.56683]}, "properties": {"cell": "E548_N187", "weight": 38.33}}, {"type": "Feature", "geometry": {"type": "Point", "coordinates": [-0.14502, 51.62565]}, "properties": {"cell": "E528_N193", "weight": 22.33}}, {"type": "Feature", "geometry": {"type": "Point", "coordinates": [-0.26157, 51.60046]}, "properties": {"cell": "E520_N190", "weight": 73.33}}, {"type": "Feature", "geometry": {"type": "Point", "coordinates": [-0.20526, 51.56364]}, "properties": {"cell": "E524_N186", "weight": 72.0}}, {"type": "Feature", "geometry": {"type": "Point", "coordinates": [-0.24748, 51.59126]}, "properties": {"cell": "E521_N189", "weight": 76.33}}, {"type": "Feature", "geometry": {"type": "Point", "coordinates": [-0.14576, 51.60768]}, "properties": {"cell": "E528_N191", "weight": 37.67}}, {"type": "Feature", "geometry": {"type": "Point", "coordinates": [-0.15873, 51.64385]}, "properties": {"cell": "E527_N195", "weight": 27.67}}, {"type": "Feature", "geometry": {"type": "Point", "coordinates": [-0.17498, 51.59915]}, "properties": {"cell": "E526_N190", "weight": 28.67}}, {"type": "Feature", "geometry": {"type": "Point", "coordinates": [-0.27498, 51.62763]}, "properties": {"cell": "E519_N193", "weight": 44.0}}, {"type": "Feature", "geometry": {"type": "Point", "coordinates": [-0.20384, 51.59959]}, "properties": {"cell": "E524_N190", "weight": 24.33}}, {"type": "Feature", "geometry": {"type": "Point", "coordinates": [-0.19013, 51.5814]}, "properties": {"cell": "E525_N188", "weight": 13.33}}, {"type": "Feature", "geometry": {"type": "Point", "coordinates": [-0.21933, 51.57285]}, "properties": {"cell": "E523_N187", "weight": 38.0}}, {"type": "Feature", "geometry": {"type": "Point", "coordinates": [-0.26054, 51.62742]}, "properties": {"cell": "E520_N193", "weight": 26.67}}, {"type": "Feature", "geometry": {"type": "Point", "coordinates": [-0.21862, 51.59082]}, "properties": {"cell": "E523_N189", "weight": 42.33}}, {"type": "Feature", "geometry": {"type": "Point", "coordinates": [-0.21616, 51.65373]}, "properties": {"cell": "E523_N196", "weight": 31.67}}, {"type": "Feature", "geometry": {"type": "Point", "coordinates": [-0.21757, 51.61779]}, "properties": {"cell": "E523_N192", "weight": 28.33}}, {"type": "Feature", "geometry": {"type": "Point", "coordinates": [-0.17354, 51.63509]}, "properties": {"cell": "E526_N194", "weight": 23.67}}, {"type": "Feature", "geometry": {"type": "Point", "coordinates": [-0.20278, 51.62655]}, "properties": {"cell": "E524_N193", "weight": 26.33}}, {"type": "Feature", "geometry": {"type": "Point", "coordinates": [-0.21651, 51.64475]}, "properties": {"cell": "E523_N195", "weight": 35.67}}, {"type": "Feature", "geometry": {"type": "Point", "coordinates": [-0.18905, 51.60836]}, "properties": {"cell": "E525_N191", "weight": 33.67}}, {"type": "Feature", "geometry": {"type": "Point", "coordinates": [-0.2334, 51.58206]}, "properties": {"cell": "E522_N188", "weight": 51.67}}, {"type": "Feature", "geometry": {"type": "Point", "coordinates": [-0.17462, 51.60813]}, "properties": {"cell": "E526_N191", "weight": 42.0}}, {"type": "Feature", "geometry": {"type": "Point", "coordinates": [0.16488, 51.45848]}, "properties": {"cell": "E550_N175", "weight": 35.33}}, {"type": "Feature", "geometry": {"type": "Point", "coordinates": [0.15219, 51.49468]}, "properties": {"cell": "E549_N179", "weight": 32.33}}, {"type": "Feature", "geometry": {"type": "Point", "coordinates": [0.09214, 51.44181]}, "properties": {"cell": "E545_N173", "weight": 10.0}}, {"type": "Feature", "geometry": {"type": "Point", "coordinates": [0.12132, 51.45028]}, "properties": {"cell": "E547_N174", "weight": 7.0}}, {"type": "Feature", "geometry": {"type": "Point", "coordinates": [0.13654, 51.46799]}, "properties": {"cell": "E548_N176", "weight": 11.0}}, {"type": "Feature", "geometry": {"type": "Point", "coordinates": [0.13612, 51.459]}, "properties": {"cell": "E548_N175", "weight": 53.67}}, {"type": "Feature", "geometry": {"type": "Point", "coordinates": [0.16531, 51.46746]}, "properties": {"cell": "E550_N176", "weight": 26.33}}, {"type": "Feature", "geometry": {"type": "Point", "coordinates": [0.17884, 51.44922]}, "properties": {"cell": "E551_N174", "weight": 27.67}}, {"type": "Feature", "geometry": {"type": "Point", "coordinates": [0.13444, 51.42306]}, "properties": {"cell": "E548_N171", "weight": 21.67}}, {"type": "Feature", "geometry": {"type": "Point", "coordinates": [0.12173, 51.45926]}, "properties": {"cell": "E547_N175", "weight": 17.67}}, {"type": "Feature", "geometry": {"type": "Point", "coordinates": [0.09338, 51.46877]}, "properties": {"cell": "E545_N176", "weight": 21.33}}, {"type": "Feature", "geometry": {"type": "Point", "coordinates": [0.16616, 51.48543]}, "properties": {"cell": "E550_N178", "weight": 45.33}}, {"type": "Feature", "geometry": {"type": "Point", "coordinates": [0.09297, 51.45978]}, "properties": {"cell": "E545_N175", "weight": 13.33}}, {"type": "Feature", "geometry": {"type": "Point", "coordinates": [0.12298, 51.48622]}, "properties": {"cell": "E547_N178", "weight": 24.33}}, {"type": "Feature", "geometry": {"type": "Point", "coordinates": [0.09132, 51.42384]}, "properties": {"cell": "E545_N171", "weight": 22.67}}, {"type": "Feature", "geometry": {"type": "Point", "coordinates": [0.19408, 51.46693]}, "properties": {"cell": "E552_N176", "weight": 45.33}}, {"type": "Feature", "geometry": {"type": "Point", "coordinates": [0.15134, 51.47671]}, "properties": {"cell": "E549_N177", "weight": 14.33}}, {"type": "Feature", "geometry": {"type": "Point", "coordinates": [0.14966, 51.44077]}, "properties": {"cell": "E549_N173", "weight": 14.0}}, {"type": "Feature", "geometry": {"type": "Point", "coordinates": [0.12215, 51.46825]}, "properties": {"cell": "E547_N176", "weight": 14.33}}, {"type": "Feature", "geometry": {"type": "Point", "coordinates": [0.10611, 51.43257]}, "properties": {"cell": "E546_N172", "weight": 16.67}}, {"type": "Feature", "geometry": {"type": "Point", "coordinates": [0.13822, 51.50393]}, "properties": {"cell": "E548_N180", "weight": 40.67}}, {"type": "Feature", "geometry": {"type": "Point", "coordinates": [-0.29279, 51.53797]}, "properties": {"cell": "E518_N183", "weight": 52.33}}, {"type": "Feature", "geometry": {"type": "Point", "coordinates": [-0.27702, 51.57371]}, "properties": {"cell": "E519_N187", "weight": 41.33}}, {"type": "Feature", "geometry": {"type": "Point", "coordinates": [-0.22038, 51.54589]}, "properties": {"cell": "E523_N184", "weight": 37.0}}, {"type": "Feature", "geometry": {"type": "Point", "coordinates": [-0.2341, 51.56408]}, "properties": {"cell": "E522_N186", "weight": 47.33}}, {"type": "Feature", "geometry": {"type": "Point", "coordinates": [-0.23445, 51.55509]}, "properties": {"cell": "E522_N185", "weight": 67.33}}, {"type": "Feature", "geometry": {"type": "Point", "coordinates": [-0.26225, 51.58249]}, "properties": {"cell": "E520_N188", "weight": 46.0}}, {"type": "Feature", "geometry": {"type": "Point", "coordinates": [-0.24955, 51.53734]}, "properties": {"cell": "E521_N183", "weight": 106.0}}, {"type": "Feature", "geometry": {"type": "Point", "coordinates": [-0.23514, 51.53712]}, "properties": {"cell": "E522_N183", "weight": 81.0}}, {"type": "Feature", "geometry": {"type": "Point", "coordinates": [-0.30553, 51.58312]}, "properties": {"cell": "E517_N188", "weight": 21.33}}, {"type": "Feature", "geometry": {"type": "Point", "coordinates": [-0.19191, 51.53646]}, "properties": {"cell": "E525_N183", "weight": 142.33}}, {"type": "Feature", "geometry": {"type": "Point", "coordinates": [-0.22003, 51.55488]}, "properties": {"cell": "E523_N185", "weight": 72.0}}, {"type": "Feature", "geometry": {"type": "Point", "coordinates": [-0.32062, 51.56535]}, "properties": {"cell": "E516_N186", "weight": 24.67}}, {"type": "Feature", "geometry": {"type": "Point", "coordinates": [-0.29178, 51.56493]}, "properties": {"cell": "E518_N186", "weight": 49.33}}, {"type": "Feature", "geometry": {"type": "Point", "coordinates": [-0.22073, 51.5369]}, "properties": {"cell": "E523_N183", "weight": 57.33}}, {"type": "Feature", "geometry": {"type": "Point", "coordinates": [-0.27634, 51.59169]}, "properties": {"cell": "E519_N189", "weight": 37.33}}, {"type": "Feature", "geometry": {"type": "Point", "coordinates": [-0.26396, 51.53755]}, "properties": {"cell": "E520_N183", "weight": 128.0}}, {"type": "Feature", "geometry": {"type": "Point", "coordinates": [-0.32095, 51.55636]}, "properties": {"cell": "E516_N185", "weight": 43.67}}, {"type": "Feature", "geometry": {"type": "Point", "coordinates": [-0.2777, 51.55574]}, "properties": {"cell": "E519_N185", "weight": 59.0}}, {"type": "Feature", "geometry": {"type": "Point", "coordinates": [-0.26294, 51.56451]}, "properties": {"cell": "E520_N186", "weight": 58.0}}, {"type": "Feature", "geometry": {"type": "Point", "coordinates": [-0.29245, 51.54696]}, "properties": {"cell": "E518_N184", "weight": 115.33}}, {"type": "Feature", "geometry": {"type": "Point", "coordinates": [-0.23479, 51.54611]}, "properties": {"cell": "E522_N184", "weight": 91.67}}, {"type": "Feature", "geometry": {"type": "Point", "coordinates": [0.047, 51.39764]}, "properties": {"cell": "E542_N168", "weight": 15.33}}, {"type": "Feature", "geometry": {"type": "Point", "coordinates": [0.02906, 51.31702]}, "properties": {"cell": "E541_N159", "weight": 5.0}}, {"type": "Feature", "geometry": {"type": "Point", "coordinates": [0.0458, 51.37069]}, "properties": {"cell": "E542_N165", "weight": 29.67}}, {"type": "Feature", "geometry": {"type": "Point", "coordinates": [0.01867, 51.40713]}, "properties": {"cell": "E540_N169", "weight": 88.33}}, {"type": "Feature", "geometry": {"type": "Point", "coordinates": [0.11675, 51.35144]}, "properties": {"cell": "E547_N163", "weight": 11.67}}, {"type": "Feature", "geometry": {"type": "Point", "coordinates": [0.07654, 51.41511]}, "properties": {"cell": "E544_N170", "weight": 24.67}}, {"type": "Feature", "geometry": {"type": "Point", "coordinates": [-0.05318, 51.40834]}, "properties": {"cell": "E535_N169", "weight": 29.0}}, {"type": "Feature", "geometry": {"type": "Point", "coordinates": [-0.02444, 51.40786]}, "properties": {"cell": "E537_N169", "weight": 41.0}}, {"type": "Feature", "geometry": {"type": "Point", "coordinates": [0.13318, 51.39611]}, "properties": {"cell": "E548_N168", "weight": 42.67}}, {"type": "Feature", "geometry": {"type": "Point", "coordinates": [0.10446, 51.39663]}, "properties": {"cell": "E546_N168", "weight": 45.67}}, {"type": "Feature", "geometry": {"type": "Point", "coordinates": [-0.06717, 51.41757]}, "properties": {"cell": "E534_N170", "weight": 57.0}}, {"type": "Feature", "geometry": {"type": "Point", "coordinates": [0.05814, 51.3255]}, "properties": {"cell": "E543_N160", "weight": 9.0}}, {"type": "Feature", "geometry": {"type": "Point", "coordinates": [0.05975, 51.36145]}, "properties": {"cell": "E543_N164", "weight": 15.33}}, {"type": "Feature", "geometry": {"type": "Point", "coordinates": [0.01708, 51.37118]}, "properties": {"cell": "E540_N165", "weight": 14.33}}, {"type": "Feature", "geometry": {"type": "Point", "coordinates": [-0.02521, 51.38989]}, "properties": {"cell": "E537_N167", "weight": 38.0}}, {"type": "Feature", "geometry": {"type": "Point", "coordinates": [0.04861, 51.43359]}, "properties": {"cell": "E542_N172", "weight": 36.67}}, {"type": "Feature", "geometry": {"type": "Point", "coordinates": [0.10322, 51.36967]}, "properties": {"cell": "E546_N165", "weight": 31.33}}, {"type": "Feature", "geometry": {"type": "Point", "coordinates": [-0.0528, 51.41733]}, "properties": {"cell": "E535_N170", "weight": 82.0}}, {"type": "Feature", "geometry": {"type": "Point", "coordinates": [0.07532, 51.38815]}, "properties": {"cell": "E544_N167", "weight": 15.0}}, {"type": "Feature", "geometry": {"type": "Point", "coordinates": [0.01906, 51.41611]}, "properties": {"cell": "E540_N170", "weight": 32.33}}, {"type": "Feature", "geometry": {"type": "Point", "coordinates": [0.0039, 51.39839]}, "properties": {"cell": "E539_N168", "weight": 3.33}}, {"type": "Feature", "geometry": {"type": "Point", "coordinates": [-0.01124, 51.38066]}, "properties": {"cell": "E538_N166", "weight": 12.0}}, {"type": "Feature", "geometry": {"type": "Point", "coordinates": [-0.16273, 51.545]}, "properties": {"cell": "E527_N184", "weight": 17.0}}, {"type": "Feature", "geometry": {"type": "Point", "coordinates": [-0.135, 51.51759]}, "properties": {"cell": "E529_N181", "weight": 91.33}}, {"type": "Feature", "geometry": {"type": "Point", "coordinates": [-0.14831, 51.54477]}, "properties": {"cell": "E528_N184", "weight": 239.33}}, {"type": "Feature", "geometry": {"type": "Point", "coordinates": [-0.1339, 51.54455]}, "properties": {"cell": "E529_N184", "weight": 46.67}}, {"type": "Feature", "geometry": {"type": "Point", "coordinates": [-0.20561, 51.55466]}, "properties": {"cell": "E524_N185", "weight": 26.0}}, {"type": "Feature", "geometry": {"type": "Point", "coordinates": [-0.17678, 51.55421]}, "properties": {"cell": "E526_N185", "weight": 20.0}}, {"type": "Feature", "geometry": {"type": "Point", "coordinates": [-0.16236, 51.55399]}, "properties": {"cell": "E527_N185", "weight": 30.67}}, {"type": "Feature", "geometry": {"type": "Point", "coordinates": [-0.17642, 51.5632]}, "properties": {"cell": "E526_N186", "weight": 20.33}}, {"type": "Feature", "geometry": {"type": "Point", "coordinates": [-0.162, 51.56297]}, "properties": {"cell": "E527_N186", "weight": 22.33}}, {"type": "Feature", "geometry": {"type": "Point", "coordinates": [-0.1206, 51.51736]}, "properties": {"cell": "E530_N181", "weight": 150.0}}, {"type": "Feature", "geometry": {"type": "Point", "coordinates": [-0.13353, 51.55353]}, "properties": {"cell": "E529_N185", "weight": 116.33}}, {"type": "Feature", "geometry": {"type": "Point", "coordinates": [-0.12023, 51.52634]}, "properties": {"cell": "E530_N182", "weight": 69.0}}, {"type": "Feature", "geometry": {"type": "Point", "coordinates": [-0.14904, 51.5268]}, "properties": {"cell": "E528_N182", "weight": 94.67}}, {"type": "Feature", "geometry": {"type": "Point", "coordinates": [-0.13427, 51.53556]}, "properties": {"cell": "E529_N183", "weight": 100.67}}, {"type": "Feature", "geometry": {"type": "Point", "coordinates": [-0.17714, 51.54523]}, "properties": {"cell": "E526_N184", "weight": 26.33}}, {"type": "Feature", "geometry": {"type": "Point", "coordinates": [-0.19155, 51.54545]}, "properties": {"cell": "E525_N184", "weight": 31.33}}, {"type": "Feature", "geometry": {"type": "Point", "coordinates": [-0.08304, 51.38186]}, "properties": {"cell": "E533_N166", "weight": 54.33}}, {"type": "Feature", "geometry": {"type": "Point", "coordinates": [-0.05432, 51.38138]}, "properties": {"cell": "E535_N166", "weight": 32.33}}, {"type": "Feature", "geometry": {"type": "Point", "coordinates": [-0.11103, 51.4003]}, "properties": {"cell": "E531_N168", "weight": 61.67}}, {"type": "Feature", "geometry": {"type": "Point", "coordinates": [-0.11177, 51.38232]}, "properties": {"cell": "E531_N166", "weight": 123.67}}, {"type": "Feature", "geometry": {"type": "Point", "coordinates": [-0.12942, 51.30167]}, "properties": {"cell": "E530_N157", "weight": 13.33}}, {"type": "Feature", "geometry": {"type": "Point", "coordinates": [-0.14303, 51.31987]}, "properties": {"cell": "E529_N159", "weight": 19.0}}, {"type": "Feature", "geometry": {"type": "Point", "coordinates": [-0.08417, 51.3549]}, "properties": {"cell": "E533_N163", "weight": 39.67}}, {"type": "Feature", "geometry": {"type": "Point", "coordinates": [-0.08342, 51.37287]}, "properties": {"cell": "E533_N165", "weight": 238.67}}, {"type": "Feature", "geometry": {"type": "Point", "coordinates": [-0.01241, 51.3537]}, "properties": {"cell": "E538_N163", "weight": 49.33}}, {"type": "Feature", "geometry": {"type": "Point", "coordinates": [-0.04111, 51.35419]}, "properties": {"cell": "E536_N163", "weight": 23.0}}, {"type": "Feature", "geometry": {"type": "Point", "coordinates": [-0.10001, 51.31918]}, "properties": {"cell": "E532_N159", "weight": 22.33}}, {"type": "Feature", "geometry": {"type": "Point", "coordinates": [-0.0128, 51.34472]}, "properties": {"cell": "E538_N162", "weight": 39.33}}, {"type": "Feature", "geometry": {"type": "Point", "coordinates": [-0.12502, 51.40952]}, "properties": {"cell": "E530_N169", "weight": 53.33}}, {"type": "Feature", "geometry": {"type": "Point", "coordinates": [-0.11361, 51.33739]}, "properties": {"cell": "E531_N161", "weight": 40.67}}, {"type": "Feature", "geometry": {"type": "Point", "coordinates": [-0.08529, 51.32794]}, "properties": {"cell": "E533_N160", "weight": 9.67}}, {"type": "Feature", "geometry": {"type": "Point", "coordinates": [-0.09703, 51.39108]}, "properties": {"cell": "E532_N167", "weight": 135.0}}, {"type": "Feature", "geometry": {"type": "Point", "coordinates": [-0.05584, 51.34544]}, "properties": {"cell": "E535_N162", "weight": 13.67}}, {"type": "Feature", "geometry": {"type": "Point", "coordinates": [-0.04034, 51.37216]}, "properties": {"cell": "E536_N165", "weight": 19.0}}, {"type": "Feature", "geometry": {"type": "Point", "coordinates": [-0.08192, 51.40882]}, "properties": {"cell": "E533_N169", "weight": 87.67}}, {"type": "Feature", "geometry": {"type": "Point", "coordinates": [-0.09666, 51.40007]}, "properties": {"cell": "E532_N168", "weight": 79.33}}, {"type": "Feature", "geometry": {"type": "Point", "coordinates": [-0.09591, 51.41804]}, "properties": {"cell": "E532_N170", "weight": 53.0}}, {"type": "Feature", "geometry": {"type": "Point", "coordinates": [-0.1125, 51.36435]}, "properties": {"cell": "E531_N164", "weight": 65.33}}, {"type": "Feature", "geometry": {"type": "Point", "coordinates": [-0.12576, 51.39154]}, "properties": {"cell": "E530_N167", "weight": 88.67}}, {"type": "Feature", "geometry": {"type": "Point", "coordinates": [-0.0683, 51.39061]}, "properties": {"cell": "E534_N167", "weight": 73.67}}, {"type": "Feature", "geometry": {"type": "Point", "coordinates": [-0.26499, 51.51059]}, "properties": {"cell": "E520_N180", "weight": 54.33}}, {"type": "Feature", "geometry": {"type": "Point", "coordinates": [-0.32227, 51.52041]}, "properties": {"cell": "E516_N181", "weight": 21.33}}, {"type": "Feature", "geometry": {"type": "Point", "coordinates": [-0.36581, 51.51204]}, "properties": {"cell": "E513_N180", "weight": 43.67}}, {"type": "Feature", "geometry": {"type": "Point", "coordinates": [-0.30787, 51.52021]}, "properties": {"cell": "E517_N181", "weight": 64.67}}, {"type": "Feature", "geometry": {"type": "Point", "coordinates": [-0.2938, 51.51101]}, "properties": {"cell": "E518_N180", "weight": 30.33}}, {"type": "Feature", "geometry": {"type": "Point", "coordinates": [-0.26465, 51.51958]}, "properties": {"cell": "E520_N181", "weight": 69.0}}, {"type": "Feature", "geometry": {"type": "Point", "coordinates": [-0.33733, 51.50264]}, "properties": {"cell": "E515_N179", "weight": 52.0}}, {"type": "Feature", "geometry": {"type": "Point", "coordinates": [-0.36517, 51.53001]}, "properties": {"cell": "E513_N182", "weight": 70.67}}, {"type": "Feature", "geometry": {"type": "Point", "coordinates": [-0.35044, 51.5388]}, "properties": {"cell": "E514_N183", "weight": 35.0}}, {"type": "Feature", "geometry": {"type": "Point", "coordinates": [-0.29312, 51.52899]}, "properties": {"cell": "E518_N182", "weight": 24.67}}, {"type": "Feature", "geometry": {"type": "Point", "coordinates": [-0.33668, 51.52062]}, "properties": {"cell": "E515_N181", "weight": 31.67}}, {"type": "Feature", "geometry": {"type": "Point", "coordinates": [-0.36549, 51.52102]}, "properties": {"cell": "E513_N181", "weight": 37.67}}, {"type": "Feature", "geometry": {"type": "Point", "coordinates": [-0.30853, 51.50223]}, "properties": {"cell": "E517_N179", "weight": 17.0}}, {"type": "Feature", "geometry": {"type": "Point", "coordinates": [-0.3357, 51.54758]}, "properties": {"cell": "E515_N184", "weight": 21.67}}, {"type": "Feature", "geometry": {"type": "Point", "coordinates": [-0.36453, 51.54799]}, "properties": {"cell": "E513_N184", "weight": 39.0}}, {"type": "Feature", "geometry": {"type": "Point", "coordinates": [-0.39367, 51.5394]}, "properties": {"cell": "E511_N183", "weight": 52.67}}, {"type": "Feature", "geometry": {"type": "Point", "coordinates": [-0.36613, 51.50305]}, "properties": {"cell": "E513_N179", "weight": 64.33}}, {"type": "Feature", "geometry": {"type": "Point", "coordinates": [-0.32161, 51.53839]}, "properties": {"cell": "E516_N183", "weight": 29.33}}, {"type": "Feature", "geometry": {"type": "Point", "coordinates": [-0.27939, 51.5108]}, "properties": {"cell": "E519_N180", "weight": 109.67}}, {"type": "Feature", "geometry": {"type": "Point", "coordinates": [-0.38022, 51.51224]}, "properties": {"cell": "E512_N180", "weight": 74.0}}, {"type": "Feature", "geometry": {"type": "Point", "coordinates": [-0.39494, 51.50345]}, "properties": {"cell": "E511_N179", "weight": 72.0}}, {"type": "Feature", "geometry": {"type": "Point", "coordinates": [-0.26533, 51.5016]}, "properties": {"cell": "E520_N179", "weight": 15.67}}, {"type": "Feature", "geometry": {"type": "Point", "coordinates": [-0.3226, 51.51143]}, "properties": {"cell": "E516_N180", "weight": 39.33}}, {"type": "Feature", "geometry": {"type": "Point", "coordinates": [-0.10246, 51.60699]}, "properties": {"cell": "E531_N191", "weight": 26.67}}, {"type": "Feature", "geometry": {"type": "Point", "coordinates": [-0.07245, 51.63348]}, "properties": {"cell": "E533_N194", "weight": 21.0}}, {"type": "Feature", "geometry": {"type": "Point", "coordinates": [-0.09945, 51.67888]}, "properties": {"cell": "E531_N199", "weight": 33.33}}, {"type": "Feature", "geometry": {"type": "Point", "coordinates": [-0.14356, 51.6616]}, "properties": {"cell": "E528_N197", "weight": 18.33}}, {"type": "Feature", "geometry": {"type": "Point", "coordinates": [-0.05878, 51.61527]}, "properties": {"cell": "E534_N192", "weight": 213.33}}, {"type": "Feature", "geometry": {"type": "Point", "coordinates": [-0.02796, 51.65972]}, "properties": {"cell": "E536_N197", "weight": 62.33}}, {"type": "Feature", "geometry": {"type": "Point", "coordinates": [-0.02757, 51.6687]}, "properties": {"cell": "E536_N198", "weight": 52.0}}, {"type": "Feature", "geometry": {"type": "Point", "coordinates": [-0.08651, 51.6427]}, "properties": {"cell": "E532_N195", "weight": 19.67}}, {"type": "Feature", "geometry": {"type": "Point", "coordinates": [-0.07283, 51.62449]}, "properties": {"cell": "E533_N193", "weight": 67.33}}, {"type": "Feature", "geometry": {"type": "Point", "coordinates": [-0.11466, 51.66114]}, "properties": {"cell": "E530_N197", "weight": 19.67}}, {"type": "Feature", "geometry": {"type": "Point", "coordinates": [-0.04357, 51.633]}, "properties": {"cell": "E535_N194", "weight": 41.33}}, {"type": "Feature", "geometry": {"type": "Point", "coordinates": [-0.04396, 51.62401]}, "properties": {"cell": "E535_N193", "weight": 57.0}}, {"type": "Feature", "geometry": {"type": "Point", "coordinates": [-0.10208, 51.61597]}, "properties": {"cell": "E531_N192", "weight": 35.33}}, {"type": "Feature", "geometry": {"type": "Point", "coordinates": [-0.02874, 51.64174]}, "properties": {"cell": "E536_N195", "weight": 56.33}}, {"type": "Feature", "geometry": {"type": "Point", "coordinates": [-0.05724, 51.65121]}, "properties": {"cell": "E534_N196", "weight": 49.33}}, {"type": "Feature", "geometry": {"type": "Point", "coordinates": [-0.13022, 51.63441]}, "properties": {"cell": "E529_N194", "weight": 28.0}}, {"type": "Feature", "geometry": {"type": "Point", "coordinates": [-0.13095, 51.61644]}, "properties": {"cell": "E529_N192", "weight": 28.0}}, {"type": "Feature", "geometry": {"type": "Point", "coordinates": [-0.07131, 51.66044]}, "properties": {"cell": "E533_N197", "weight": 33.33}}, {"type": "Feature", "geometry": {"type": "Point", "coordinates": [-0.04164, 51.67793]}, "properties": {"cell": "E535_N199", "weight": 52.33}}, {"type": "Feature", "geometry": {"type": "Point", "coordinates": [-0.10133, 51.63395]}, "properties": {"cell": "E531_N194", "weight": 17.33}}, {"type": "Feature", "geometry": {"type": "Point", "coordinates": [0.10859, 51.48648]}, "properties": {"cell": "E546_N178", "weight": 75.33}}, {"type": "Feature", "geometry": {"type": "Point", "coordinates": [0.02184, 51.47902]}, "properties": {"cell": "E540_N177", "weight": 26.33}}, {"type": "Feature", "geometry": {"type": "Point", "coordinates": [0.03623, 51.47877]}, "properties": {"cell": "E541_N177", "weight": 44.33}}, {"type": "Feature", "geometry": {"type": "Point", "coordinates": [0.06298, 51.43333]}, "properties": {"cell": "E543_N172", "weight": 29.33}}, {"type": "Feature", "geometry": {"type": "Point", "coordinates": [0.0642, 51.46029]}, "properties": {"cell": "E543_N175", "weight": 29.67}}, {"type": "Feature", "geometry": {"type": "Point", "coordinates": [0.06379, 51.45131]}, "properties": {"cell": "E543_N174", "weight": 40.33}}, {"type": "Feature", "geometry": {"type": "Point", "coordinates": [0.03543, 51.4608]}, "properties": {"cell": "E541_N175", "weight": 27.67}}, {"type": "Feature", "geometry": {"type": "Point", "coordinates": [0.07981, 51.48699]}, "properties": {"cell": "E544_N178", "weight": 69.33}}, {"type": "Feature", "geometry": {"type": "Point", "coordinates": [-0.00694, 51.47951]}, "properties": {"cell": "E538_N177", "weight": 89.33}}, {"type": "Feature", "geometry": {"type": "Point", "coordinates": [0.03583, 51.46978]}, "properties": {"cell": "E541_N176", "weight": 32.0}}, {"type": "Feature", "geometry": {"type": "Point", "coordinates": [0.03503, 51.45181]}, "properties": {"cell": "E541_N174", "weight": 37.67}}, {"type": "Feature", "geometry": {"type": "Point", "coordinates": [0.00784, 51.48825]}, "properties": {"cell": "E539_N178", "weight": 73.67}}, {"type": "Feature", "geometry": {"type": "Point", "coordinates": [0.0942, 51.48674]}, "properties": {"cell": "E545_N178", "weight": 98.33}}, {"type": "Feature", "geometry": {"type": "Point", "coordinates": [0.07899, 51.46902]}, "properties": {"cell": "E544_N176", "weight": 34.33}}, {"type": "Feature", "geometry": {"type": "Point", "coordinates": [0.09502, 51.50471]}, "properties": {"cell": "E545_N180", "weight": 77.67}}, {"type": "Feature", "geometry": {"type": "Point", "coordinates": [0.06501, 51.47826]}, "properties": {"cell": "E543_N177", "weight": 107.0}}, {"type": "Feature", "geometry": {"type": "Point", "coordinates": [0.05102, 51.4875]}, "properties": {"cell": "E542_N178", "weight": 140.67}}, {"type": "Feature", "geometry": {"type": "Point", "coordinates": [-0.08991, 51.56182]}, "properties": {"cell": "E532_N186", "weight": 71.67}}, {"type": "Feature", "geometry": {"type": "Point", "coordinates": [-0.06069, 51.57034]}, "properties": {"cell": "E534_N187", "weight": 64.33}}, {"type": "Feature", "geometry": {"type": "Point", "coordinates": [-0.04704, 51.55212]}, "properties": {"cell": "E535_N185", "weight": 88.67}}, {"type": "Feature", "geometry": {"type": "Point", "coordinates": [-0.09029, 51.55284]}, "properties": {"cell": "E532_N185", "weight": 93.33}}, {"type": "Feature", "geometry": {"type": "Point", "coordinates": [-0.07587, 51.5526]}, "properties": {"cell": "E533_N185", "weight": 110.67}}, {"type": "Feature", "geometry": {"type": "Point", "coordinates": [-0.07625, 51.54361]}, "properties": {"cell": "E533_N184", "weight": 60.67}}, {"type": "Feature", "geometry": {"type": "Point", "coordinates": [-0.06146, 51.55236]}, "properties": {"cell": "E534_N185", "weight": 59.67}}, {"type": "Feature", "geometry": {"type": "Point", "coordinates": [-0.06108, 51.56135]}, "properties": {"cell": "E534_N186", "weight": 46.33}}, {"type": "Feature", "geometry": {"type": "Point", "coordinates": [-0.07663, 51.53463]}, "properties": {"cell": "E533_N183", "weight": 179.67}}, {"type": "Feature", "geometry": {"type": "Point", "coordinates": [-0.09104, 51.53486]}, "properties": {"cell": "E532_N183", "weight": 159.33}}, {"type": "Feature", "geometry": {"type": "Point", "coordinates": [-0.03263, 51.55188]}, "properties": {"cell": "E536_N185", "weight": 39.0}}, {"type": "Feature", "geometry": {"type": "Point", "coordinates": [-0.04666, 51.56111]}, "properties": {"cell": "E535_N186", "weight": 57.33}}, {"type": "Feature", "geometry": {"type": "Point", "coordinates": [-0.07511, 51.57057]}, "properties": {"cell": "E533_N187", "weight": 56.33}}, {"type": "Feature", "geometry": {"type": "Point", "coordinates": [-0.06184, 51.54338]}, "properties": {"cell": "E534_N184", "weight": 73.33}}, {"type": "Feature", "geometry": {"type": "Point", "coordinates": [-0.07549, 51.56159]}, "properties": {"cell": "E533_N186", "weight": 92.0}}, {"type": "Feature", "geometry": {"type": "Point", "coordinates": [-0.04743, 51.54314]}, "properties": {"cell": "E535_N184", "weight": 57.67}}, {"type": "Feature", "geometry": {"type": "Point", "coordinates": [-0.03302, 51.5429]}, "properties": {"cell": "E536_N184", "weight": 65.67}}, {"type": "Feature", "geometry": {"type": "Point", "coordinates": [-0.22213, 51.50095]}, "properties": {"cell": "E523_N179", "weight": 30.0}}, {"type": "Feature", "geometry": {"type": "Point", "coordinates": [-0.23653, 51.50117]}, "properties": {"cell": "E522_N179", "weight": 47.0}}, {"type": "Feature", "geometry": {"type": "Point", "coordinates": [-0.20808, 51.49175]}, "properties": {"cell": "E524_N178", "weight": 52.67}}, {"type": "Feature", "geometry": {"type": "Point", "coordinates": [-0.23584, 51.51915]}, "properties": {"cell": "E522_N181", "weight": 52.0}}, {"type": "Feature", "geometry": {"type": "Point", "coordinates": [-0.19404, 51.48254]}, "properties": {"cell": "E525_N177", "weight": 55.67}}, {"type": "Feature", "geometry": {"type": "Point", "coordinates": [-0.22283, 51.48298]}, "properties": {"cell": "E523_N177", "weight": 25.67}}, {"type": "Feature", "geometry": {"type": "Point", "coordinates": [-0.22248, 51.49197]}, "properties": {"cell": "E523_N178", "weight": 109.67}}, {"type": "Feature", "geometry": {"type": "Point", "coordinates": [-0.20879, 51.47377]}, "properties": {"cell": "E524_N176", "weight": 48.33}}, {"type": "Feature", "geometry": {"type": "Point", "coordinates": [-0.1944, 51.47355]}, "properties": {"cell": "E525_N176", "weight": 47.0}}, {"type": "Feature", "geometry": {"type": "Point", "coordinates": [-0.23688, 51.49218]}, "properties": {"cell": "E522_N178", "weight": 33.0}}, {"type": "Feature", "geometry": {"type": "Point", "coordinates": [-0.22178, 51.50994]}, "properties": {"cell": "E523_N180", "weight": 95.33}}, {"type": "Feature", "geometry": {"type": "Point", "coordinates": [-0.23618, 51.51016]}, "properties": {"cell": "E522_N180", "weight": 46.0}}, {"type": "Feature", "geometry": {"type": "Point", "coordinates": [-0.13169, 51.59846]}, "properties": {"cell": "E529_N190", "weight": 16.33}}, {"type": "Feature", "geometry": {"type": "Point", "coordinates": [-0.11689, 51.60722]}, "properties": {"cell": "E530_N191", "weight": 71.67}}, {"type": "Feature", "geometry": {"type": "Point", "coordinates": [-0.07397, 51.59753]}, "properties": {"cell": "E533_N190", "weight": 100.33}}, {"type": "Feature", "geometry": {"type": "Point", "coordinates": [-0.13243, 51.58049]}, "properties": {"cell": "E529_N188", "weight": 20.0}}, {"type": "Feature", "geometry": {"type": "Point", "coordinates": [-0.16091, 51.58993]}, "properties": {"cell": "E527_N189", "weight": 30.33}}, {"type": "Feature", "geometry": {"type": "Point", "coordinates": [-0.10358, 51.58003]}, "properties": {"cell": "E531_N188", "weight": 68.0}}, {"type": "Feature", "geometry": {"type": "Point", "coordinates": [-0.14685, 51.58072]}, "properties": {"cell": "E528_N188", "weight": 19.33}}, {"type": "Feature", "geometry": {"type": "Point", "coordinates": [-0.11763, 51.58925]}, "properties": {"cell": "E530_N189", "weight": 59.0}}, {"type": "Feature", "geometry": {"type": "Point", "coordinates": [-0.13206, 51.58948]}, "properties": {"cell": "E529_N189", "weight": 22.67}}, {"type": "Feature", "geometry": {"type": "Point", "coordinates": [-0.10283, 51.598]}, "properties": {"cell": "E531_N190", "weight": 219.0}}, {"type": "Feature", "geometry": {"type": "Point", "coordinates": [-0.05916, 51.60628]}, "properties": {"cell": "E534_N191", "weight": 132.33}}, {"type": "Feature", "geometry": {"type": "Point", "coordinates": [-0.08916, 51.5798]}, "properties": {"cell": "E532_N188", "weight": 82.33}}, {"type": "Feature", "geometry": {"type": "Point", "coordinates": [-0.07473, 51.57956]}, "properties": {"cell": "E533_N188", "weight": 64.67}}, {"type": "Feature", "geometry": {"type": "Point", "coordinates": [-0.10396, 51.57104]}, "properties": {"cell": "E531_N187", "weight": 29.33}}, {"type": "Feature", "geometry": {"type": "Point", "coordinates": [-0.07436, 51.58855]}, "properties": {"cell": "E533_N189", "weight": 140.33}}, {"type": "Feature", "geometry": {"type": "Point", "coordinates": [-0.05955, 51.59729]}, "properties": {"cell": "E534_N190", "weight": 118.33}}, {"type": "Feature", "geometry": {"type": "Point", "coordinates": [-0.08878, 51.58878]}, "properties": {"cell": "E532_N189", "weight": 63.0}}, {"type": "Feature", "geometry": {"type": "Point", "coordinates": [-0.08803, 51.60675]}, "properties": {"cell": "E532_N191", "weight": 66.0}}, {"type": "Feature", "geometry": {"type": "Point", "coordinates": [-0.30486, 51.60109]}, "properties": {"cell": "E517_N190", "weight": 11.67}}, {"type": "Feature", "geometry": {"type": "Point", "coordinates": [-0.30419, 51.61907]}, "properties": {"cell": "E517_N192", "weight": 20.33}}, {"type": "Feature", "geometry": {"type": "Point", "coordinates": [-0.276, 51.60067]}, "properties": {"cell": "E519_N190", "weight": 32.0}}, {"type": "Feature", "geometry": {"type": "Point", "coordinates": [-0.33438, 51.58353]}, "properties": {"cell": "E515_N188", "weight": 73.67}}, {"type": "Feature", "geometry": {"type": "Point", "coordinates": [-0.33504, 51.56556]}, "properties": {"cell": "E515_N186", "weight": 45.33}}, {"type": "Feature", "geometry": {"type": "Point", "coordinates": [-0.34783, 51.6107]}, "properties": {"cell": "E514_N191", "weight": 22.33}}, {"type": "Feature", "geometry": {"type": "Point", "coordinates": [-0.3767, 51.6111]}, "properties": {"cell": "E512_N191", "weight": 13.33}}, {"type": "Feature", "geometry": {"type": "Point", "coordinates": [-0.36291, 51.59293]}, "properties": {"cell": "E513_N189", "weight": 14.33}}, {"type": "Feature", "geometry": {"type": "Point", "coordinates": [-0.34881, 51.58374]}, "properties": {"cell": "E514_N188", "weight": 9.33}}, {"type": "Feature", "geometry": {"type": "Point", "coordinates": [-0.29077, 51.5919]}, "properties": {"cell": "E518_N189", "weight": 20.0}}, {"type": "Feature", "geometry": {"type": "Point", "coordinates": [-0.31962, 51.59231]}, "properties": {"cell": "E516_N189", "weight": 15.0}}, {"type": "Feature", "geometry": {"type": "Point", "coordinates": [-0.33405, 51.59252]}, "properties": {"cell": "E515_N189", "weight": 39.0}}, {"type": "Feature", "geometry": {"type": "Point", "coordinates": [-0.39145, 51.60231]}, "properties": {"cell": "E511_N190", "weight": 10.67}}, {"type": "Feature", "geometry": {"type": "Point", "coordinates": [-0.39209, 51.58434]}, "properties": {"cell": "E511_N188", "weight": 7.67}}, {"type": "Feature", "geometry": {"type": "Point", "coordinates": [-0.29043, 51.60088]}, "properties": {"cell": "E518_N190", "weight": 17.67}}, {"type": "Feature", "geometry": {"type": "Point", "coordinates": [-0.37798, 51.57515]}, "properties": {"cell": "E512_N187", "weight": 16.0}}, {"type": "Feature", "geometry": {"type": "Point", "coordinates": [-0.36388, 51.56596]}, "properties": {"cell": "E513_N186", "weight": 36.0}}, {"type": "Feature", "geometry": {"type": "Point", "coordinates": [-0.3642, 51.55697]}, "properties": {"cell": "E513_N185", "weight": 36.0}}, {"type": "Feature", "geometry": {"type": "Point", "coordinates": [-0.31863, 51.61928]}, "properties": {"cell": "E516_N192", "weight": 24.33}}, {"type": "Feature", "geometry": {"type": "Point", "coordinates": [-0.33372, 51.60151]}, "properties": {"cell": "E515_N190", "weight": 30.67}}, {"type": "Feature", "geometry": {"type": "Point", "coordinates": [-0.36356, 51.57495]}, "properties": {"cell": "E513_N187", "weight": 13.67}}, {"type": "Feature", "geometry": {"type": "Point", "coordinates": [0.17043, 51.57528]}, "properties": {"cell": "E550_N188", "weight": 52.67}}, {"type": "Feature", "geometry": {"type": "Point", "coordinates": [0.27136, 51.57337]}, "properties": {"cell": "E557_N188", "weight": 10.0}}, {"type": "Feature", "geometry": {"type": "Point", "coordinates": [0.19753, 51.5388]}, "properties": {"cell": "E552_N184", "weight": 21.0}}, {"type": "Feature", "geometry": {"type": "Point", "coordinates": [0.22811, 51.5742]}, "properties": {"cell": "E554_N188", "weight": 11.33}}, {"type": "Feature", "geometry": {"type": "Point", "coordinates": [0.23031, 51.61912]}, "properties": {"cell": "E554_N193", "weight": 54.67}}, {"type": "Feature", "geometry": {"type": "Point", "coordinates": [0.21238, 51.54752]}, "properties": {"cell": "E553_N185", "weight": 13.33}}, {"type": "Feature", "geometry": {"type": "Point", "coordinates": [0.24341, 51.59189]}, "properties": {"cell": "E555_N190", "weight": 26.0}}, {"type": "Feature", "geometry": {"type": "Point", "coordinates": [0.17214, 51.61122]}, "properties": {"cell": "E550_N192", "weight": 30.67}}, {"type": "Feature", "geometry": {"type": "Point", "coordinates": [0.215, 51.60143]}, "properties": {"cell": "E553_N191", "weight": 35.33}}, {"type": "Feature", "geometry": {"type": "Point", "coordinates": [0.19883, 51.56576]}, "properties": {"cell": "E552_N187", "weight": 18.67}}, {"type": "Feature", "geometry": {"type": "Point", "coordinates": [0.15686, 51.59352]}, "properties": {"cell": "E549_N190", "weight": 25.33}}, {"type": "Feature", "geometry": {"type": "Point", "coordinates": [0.18571, 51.59298]}, "properties": {"cell": "E551_N190", "weight": 13.33}}, {"type": "Feature", "geometry": {"type": "Point", "coordinates": [0.21064, 51.51158]}, "properties": {"cell": "E553_N181", "weight": 31.0}}, {"type": "Feature", "geometry": {"type": "Point", "coordinates": [0.18485, 51.57501]}, "properties": {"cell": "E551_N188", "weight": 137.0}}, {"type": "Feature", "geometry": {"type": "Point", "coordinates": [0.21281, 51.5565]}, "properties": {"cell": "E553_N186", "weight": 29.67}}, {"type": "Feature", "geometry": {"type": "Point", "coordinates": [0.18227, 51.5211]}, "properties": {"cell": "E551_N182", "weight": 29.0}}, {"type": "Feature", "geometry": {"type": "Point", "coordinates": [0.21412, 51.58346]}, "properties": {"cell": "E553_N189", "weight": 17.33}}, {"type": "Feature", "geometry": {"type": "Point", "coordinates": [0.27002, 51.54642]}, "properties": {"cell": "E557_N185", "weight": 11.0}}, {"type": "Feature", "geometry": {"type": "Point", "coordinates": [-0.40871, 51.52162]}, "properties": {"cell": "E510_N181", "weight": 57.0}}, {"type": "Feature", "geometry": {"type": "Point", "coordinates": [-0.43784, 51.51302]}, "properties": {"cell": "E508_N180", "weight": 69.33}}, {"type": "Feature", "geometry": {"type": "Point", "coordinates": [-0.46604, 51.53137]}, "properties": {"cell": "E506_N182", "weight": 40.67}}, {"type": "Feature", "geometry": {"type": "Point", "coordinates": [-0.39272, 51.56636]}, "properties": {"cell": "E511_N186", "weight": 15.33}}, {"type": "Feature", "geometry": {"type": "Point", "coordinates": [-0.42281, 51.5308]}, "properties": {"cell": "E509_N182", "weight": 30.67}}, {"type": "Feature", "geometry": {"type": "Point", "coordinates": [-0.40652, 51.58453]}, "properties": {"cell": "E510_N188", "weight": 15.33}}, {"type": "Feature", "geometry": {"type": "Point", "coordinates": [-0.47835, 51.59448]}, "properties": {"cell": "E505_N189", "weight": 10.33}}, {"type": "Feature", "geometry": {"type": "Point", "coordinates": [-0.45346, 51.47726]}, "properties": {"cell": "E507_N176", "weight": 94.33}}, {"type": "Feature", "geometry": {"type": "Point", "coordinates": [-0.43691, 51.53998]}, "properties": {"cell": "E508_N183", "weight": 24.0}}, {"type": "Feature", "geometry": {"type": "Point", "coordinates": [-0.46483, 51.56733]}, "properties": {"cell": "E506_N186", "weight": 9.0}}, {"type": "Feature", "geometry": {"type": "Point", "coordinates": [-0.40714, 51.56656]}, "properties": {"cell": "E510_N186", "weight": 14.33}}, {"type": "Feature", "geometry": {"type": "Point", "coordinates": [-0.43475, 51.6029]}, "properties": {"cell": "E508_N190", "weight": 14.33}}, {"type": "Feature", "geometry": {"type": "Point", "coordinates": [-0.40589, 51.60251]}, "properties": {"cell": "E510_N190", "weight": 20.33}}, {"type": "Feature", "geometry": {"type": "Point", "coordinates": [-0.43845, 51.49504]}, "properties": {"cell": "E508_N178", "weight": 38.67}}, {"type": "Feature", "geometry": {"type": "Point", "coordinates": [-0.40746, 51.55757]}, "properties": {"cell": "E510_N185", "weight": 16.0}}, {"type": "Feature", "geometry": {"type": "Point", "coordinates": [-0.40903, 51.51263]}, "properties": {"cell": "E510_N180", "weight": 79.0}}, {"type": "Feature", "geometry": {"type": "Point", "coordinates": [-0.46544, 51.54935]}, "properties": {"cell": "E506_N184", "weight": 62.67}}, {"type": "Feature", "geometry": {"type": "Point", "coordinates": [-0.48045, 51.53156]}, "properties": {"cell": "E505_N182", "weight": 72.67}}, {"type": "Feature", "geometry": {"type": "Point", "coordinates": [-0.46695, 51.50441]}, "properties": {"cell": "E506_N179", "weight": 54.0}}, {"type": "Feature", "geometry": {"type": "Point", "coordinates": [-0.43537, 51.58492]}, "properties": {"cell": "E508_N188", "weight": 18.67}}, {"type": "Feature", "geometry": {"type": "Point", "coordinates": [-0.39431, 51.52142]}, "properties": {"cell": "E511_N181", "weight": 41.0}}, {"type": "Feature", "geometry": {"type": "Point", "coordinates": [-0.46665, 51.5134]}, "properties": {"cell": "E506_N180", "weight": 51.33}}, {"type": "Feature", "geometry": {"type": "Point", "coordinates": [-0.43998, 51.4501]}, "properties": {"cell": "E508_N173", "weight": 38.0}}, {"type": "Feature", "geometry": {"type": "Point", "coordinates": [-0.30886, 51.49324]}, "properties": {"cell": "E517_N178", "weight": 46.0}}, {"type": "Feature", "geometry": {"type": "Point", "coordinates": [-0.25162, 51.48341]}, "properties": {"cell": "E521_N177", "weight": 10.67}}, {"type": "Feature", "geometry": {"type": "Point", "coordinates": [-0.26601, 51.48363]}, "properties": {"cell": "E520_N177", "weight": 21.0}}, {"type": "Feature", "geometry": {"type": "Point", "coordinates": [-0.41028, 51.47668]}, "properties": {"cell": "E510_N176", "weight": 48.33}}, {"type": "Feature", "geometry": {"type": "Point", "coordinates": [-0.4109, 51.4587]}, "properties": {"cell": "E510_N174", "weight": 36.67}}, {"type": "Feature", "geometry": {"type": "Point", "coordinates": [-0.42591, 51.44092]}, "properties": {"cell": "E509_N172", "weight": 49.67}}, {"type": "Feature", "geometry": {"type": "Point", "coordinates": [-0.39746, 51.43154]}, "properties": {"cell": "E511_N171", "weight": 40.67}}, {"type": "Feature", "geometry": {"type": "Point", "coordinates": [-0.39714, 51.44053]}, "properties": {"cell": "E511_N172", "weight": 38.0}}, {"type": "Feature", "geometry": {"type": "Point", "coordinates": [-0.38149, 51.47628]}, "properties": {"cell": "E512_N176", "weight": 40.67}}, {"type": "Feature", "geometry": {"type": "Point", "coordinates": [-0.36678, 51.48507]}, "properties": {"cell": "E513_N177", "weight": 37.67}}, {"type": "Feature", "geometry": {"type": "Point", "coordinates": [-0.39557, 51.48547]}, "properties": {"cell": "E511_N177", "weight": 39.67}}, {"type": "Feature", "geometry": {"type": "Point", "coordinates": [-0.35303, 51.4669]}, "properties": {"cell": "E514_N175", "weight": 154.0}}, {"type": "Feature", "geometry": {"type": "Point", "coordinates": [-0.38213, 51.45831]}, "properties": {"cell": "E512_N174", "weight": 60.0}}, {"type": "Feature", "geometry": {"type": "Point", "coordinates": [-0.38181, 51.4673]}, "properties": {"cell": "E512_N175", "weight": 59.67}}, {"type": "Feature", "geometry": {"type": "Point", "coordinates": [-0.33864, 51.46669]}, "properties": {"cell": "E515_N175", "weight": 36.67}}, {"type": "Feature", "geometry": {"type": "Point", "coordinates": [-0.33799, 51.48467]}, "properties": {"cell": "E515_N177", "weight": 38.0}}, {"type": "Feature", "geometry": {"type": "Point", "coordinates": [-0.32392, 51.47548]}, "properties": {"cell": "E516_N176", "weight": 36.33}}, {"type": "Feature", "geometry": {"type": "Point", "coordinates": [-0.26567, 51.49261]}, "properties": {"cell": "E520_N178", "weight": 30.0}}, {"type": "Feature", "geometry": {"type": "Point", "coordinates": [-0.10545, 51.5351]}, "properties": {"cell": "E531_N183", "weight": 83.67}}, {"type": "Feature", "geometry": {"type": "Point", "coordinates": [-0.09142, 51.52588]}, "properties": {"cell": "E532_N182", "weight": 91.33}}, {"type": "Feature", "geometry": {"type": "Point", "coordinates": [-0.11949, 51.54432]}, "properties": {"cell": "E530_N184", "weight": 89.67}}, {"type": "Feature", "geometry": {"type": "Point", "coordinates": [-0.09066, 51.54385]}, "properties": {"cell": "E532_N184", "weight": 43.0}}, {"type": "Feature", "geometry": {"type": "Point", "coordinates": [-0.10582, 51.52611]}, "properties": {"cell": "E531_N182", "weight": 61.67}}, {"type": "Feature", "geometry": {"type": "Point", "coordinates": [-0.11875, 51.56229]}, "properties": {"cell": "E530_N186", "weight": 113.33}}, {"type": "Feature", "geometry": {"type": "Point", "coordinates": [-0.1047, 51.55307]}, "properties": {"cell": "E531_N185", "weight": 97.0}}, {"type": "Feature", "geometry": {"type": "Point", "coordinates": [-0.1328, 51.57151]}, "properties": {"cell": "E529_N187", "weight": 37.33}}, {"type": "Feature", "geometry": {"type": "Point", "coordinates": [-0.11912, 51.5533]}, "properties": {"cell": "E530_N185", "weight": 61.0}}, {"type": "Feature", "geometry": {"type": "Point", "coordinates": [-0.13317, 51.56252]}, "properties": {"cell": "E529_N186", "weight": 70.33}}, {"type": "Feature", "geometry": {"type": "Point", "coordinates": [-0.10508, 51.54408]}, "properties": {"cell": "E531_N184", "weight": 80.33}}, {"type": "Feature", "geometry": {"type": "Point", "coordinates": [-0.11838, 51.57127]}, "properties": {"cell": "E530_N187", "weight": 61.0}}, {"type": "Feature", "geometry": {"type": "Point", "coordinates": [-0.19333, 51.50051]}, "properties": {"cell": "E525_N179", "weight": 19.33}}, {"type": "Feature", "geometry": {"type": "Point", "coordinates": [-0.16453, 51.50007]}, "properties": {"cell": "E527_N179", "weight": 64.67}}, {"type": "Feature", "geometry": {"type": "Point", "coordinates": [-0.19298, 51.5095]}, "properties": {"cell": "E525_N180", "weight": 53.0}}, {"type": "Feature", "geometry": {"type": "Point", "coordinates": [-0.20703, 51.51871]}, "properties": {"cell": "E524_N181", "weight": 44.0}}, {"type": "Feature", "geometry": {"type": "Point", "coordinates": [-0.17929, 51.4913]}, "properties": {"cell": "E526_N178", "weight": 17.0}}, {"type": "Feature", "geometry": {"type": "Point", "coordinates": [-0.17965, 51.48232]}, "properties": {"cell": "E526_N177", "weight": 50.0}}, {"type": "Feature", "geometry": {"type": "Point", "coordinates": [-0.19369, 51.49153]}, "properties": {"cell": "E525_N178", "weight": 41.33}}, {"type": "Feature", "geometry": {"type": "Point", "coordinates": [-0.20667, 51.5277]}, "properties": {"cell": "E524_N182", "weight": 162.33}}, {"type": "Feature", "geometry": {"type": "Point", "coordinates": [-0.1649, 51.49108]}, "properties": {"cell": "E527_N178", "weight": 35.0}}, {"type": "Feature", "geometry": {"type": "Point", "coordinates": [-0.20773, 51.50073]}, "properties": {"cell": "E524_N179", "weight": 18.67}}, {"type": "Feature", "geometry": {"type": "Point", "coordinates": [-0.20738, 51.50972]}, "properties": {"cell": "E524_N180", "weight": 27.0}}, {"type": "Feature", "geometry": {"type": "Point", "coordinates": [-0.22143, 51.51893]}, "properties": {"cell": "E523_N181", "weight": 88.0}}, {"type": "Feature", "geometry": {"type": "Point", "coordinates": [-0.17893, 51.50029]}, "properties": {"cell": "E526_N179", "weight": 17.0}}, {"type": "Feature", "geometry": {"type": "Point", "coordinates": [-0.26975, 51.38476]}, "properties": {"cell": "E520_N166", "weight": 12.0}}, {"type": "Feature", "geometry": {"type": "Point", "coordinates": [-0.28378, 51.39396]}, "properties": {"cell": "E519_N167", "weight": 13.33}}, {"type": "Feature", "geometry": {"type": "Point", "coordinates": [-0.2547, 51.40253]}, "properties": {"cell": "E521_N168", "weight": 28.0}}, {"type": "Feature", "geometry": {"type": "Point", "coordinates": [-0.29714, 51.42114]}, "properties": {"cell": "E518_N170", "weight": 40.0}}, {"type": "Feature", "geometry": {"type": "Point", "coordinates": [-0.29915, 51.36721]}, "properties": {"cell": "E518_N164", "weight": 15.33}}, {"type": "Feature", "geometry": {"type": "Point", "coordinates": [-0.31416, 51.34944]}, "properties": {"cell": "E517_N162", "weight": 16.0}}, {"type": "Feature", "geometry": {"type": "Point", "coordinates": [-0.26839, 51.42071]}, "properties": {"cell": "E520_N170", "weight": 15.67}}, {"type": "Feature", "geometry": {"type": "Point", "coordinates": [-0.26873, 51.41173]}, "properties": {"cell": "E520_N169", "weight": 7.0}}, {"type": "Feature", "geometry": {"type": "Point", "coordinates": [-0.29781, 51.40316]}, "properties": {"cell": "E518_N168", "weight": 167.33}}, {"type": "Feature", "geometry": {"type": "Point", "coordinates": [-0.28311, 51.41194]}, "properties": {"cell": "E519_N169", "weight": 32.0}}, {"type": "Feature", "geometry": {"type": "Point", "coordinates": [-0.25539, 51.38455]}, "properties": {"cell": "E521_N166", "weight": 9.67}}, {"type": "Feature", "geometry": {"type": "Point", "coordinates": [-0.25505, 51.39354]}, "properties": {"cell": "E521_N167", "weight": 12.0}}, {"type": "Feature", "geometry": {"type": "Point", "coordinates": [-0.29815, 51.39417]}, "properties": {"cell": "E518_N167", "weight": 29.67}}, {"type": "Feature", "geometry": {"type": "Point", "coordinates": [-0.29848, 51.38518]}, "properties": {"cell": "E518_N166", "weight": 13.33}}, {"type": "Feature", "geometry": {"type": "Point", "coordinates": [-0.28445, 51.37599]}, "properties": {"cell": "E519_N165", "weight": 17.67}}, {"type": "Feature", "geometry": {"type": "Point", "coordinates": [-0.10694, 51.49915]}, "properties": {"cell": "E531_N179", "weight": 266.0}}, {"type": "Feature", "geometry": {"type": "Point", "coordinates": [-0.12318, 51.45445]}, "properties": {"cell": "E530_N174", "weight": 78.67}}, {"type": "Feature", "geometry": {"type": "Point", "coordinates": [-0.13757, 51.45468]}, "properties": {"cell": "E529_N174", "weight": 35.33}}, {"type": "Feature", "geometry": {"type": "Point", "coordinates": [-0.1372, 51.46367]}, "properties": {"cell": "E529_N175", "weight": 107.33}}, {"type": "Feature", "geometry": {"type": "Point", "coordinates": [-0.10843, 51.4632]}, "properties": {"cell": "E531_N175", "weight": 214.33}}, {"type": "Feature", "geometry": {"type": "Point", "coordinates": [-0.12282, 51.46344]}, "properties": {"cell": "E530_N175", "weight": 101.0}}, {"type": "Feature", "geometry": {"type": "Point", "coordinates": [-0.09554, 51.42703]}, "properties": {"cell": "E532_N171", "weight": 65.0}}, {"type": "Feature", "geometry": {"type": "Point", "coordinates": [-0.09404, 51.46297]}, "properties": {"cell": "E532_N175", "weight": 65.33}}, {"type": "Feature", "geometry": {"type": "Point", "coordinates": [-0.10991, 51.42726]}, "properties": {"cell": "E531_N171", "weight": 65.0}}, {"type": "Feature", "geometry": {"type": "Point", "coordinates": [-0.12245, 51.47242]}, "properties": {"cell": "E530_N176", "weight": 157.67}}, {"type": "Feature", "geometry": {"type": "Point", "coordinates": [-0.12208, 51.48141]}, "properties": {"cell": "E530_N177", "weight": 137.0}}, {"type": "Feature", "geometry": {"type": "Point", "coordinates": [-0.10731, 51.49016]}, "properties": {"cell": "E531_N178", "weight": 230.33}}, {"type": "Feature", "geometry": {"type": "Point", "coordinates": [-0.13866, 51.42772]}, "properties": {"cell": "E529_N171", "weight": 85.33}}, {"type": "Feature", "geometry": {"type": "Point", "coordinates": [-0.12392, 51.43648]}, "properties": {"cell": "E530_N172", "weight": 57.67}}, {"type": "Feature", "geometry": {"type": "Point", "coordinates": [-0.12466, 51.4185]}, "properties": {"cell": "E530_N170", "weight": 53.33}}, {"type": "Feature", "geometry": {"type": "Point", "coordinates": [-0.12429, 51.42749]}, "properties": {"cell": "E530_N171", "weight": 55.67}}, {"type": "Feature", "geometry": {"type": "Point", "coordinates": [-0.13793, 51.44569]}, "properties": {"cell": "E529_N173", "weight": 37.33}}, {"type": "Feature", "geometry": {"type": "Point", "coordinates": [-0.09479, 51.445]}, "properties": {"cell": "E532_N173", "weight": 52.67}}, {"type": "Feature", "geometry": {"type": "Point", "coordinates": [-0.10917, 51.44523]}, "properties": {"cell": "E531_N173", "weight": 79.33}}, {"type": "Feature", "geometry": {"type": "Point", "coordinates": [-0.10806, 51.47219]}, "properties": {"cell": "E531_N176", "weight": 101.33}}, {"type": "Feature", "geometry": {"type": "Point", "coordinates": [-0.02366, 51.42584]}, "properties": {"cell": "E537_N171", "weight": 65.67}}, {"type": "Feature", "geometry": {"type": "Point", "coordinates": [0.00705, 51.47028]}, "properties": {"cell": "E539_N176", "weight": 76.33}}, {"type": "Feature", "geometry": {"type": "Point", "coordinates": [-0.03611, 51.47101]}, "properties": {"cell": "E536_N176", "weight": 72.67}}, {"type": "Feature", "geometry": {"type": "Point", "coordinates": [-0.00851, 51.44356]}, "properties": {"cell": "E538_N173", "weight": 41.0}}, {"type": "Feature", "geometry": {"type": "Point", "coordinates": [-0.03688, 51.45304]}, "properties": {"cell": "E536_N174", "weight": 39.67}}, {"type": "Feature", "geometry": {"type": "Point", "coordinates": [0.00508, 51.42535]}, "properties": {"cell": "E539_N171", "weight": 65.67}}, {"type": "Feature", "geometry": {"type": "Point", "coordinates": [-0.03534, 51.48898]}, "properties": {"cell": "E536_N178", "weight": 63.67}}, {"type": "Feature", "geometry": {"type": "Point", "coordinates": [-0.05165, 51.44429]}, "properties": {"cell": "E535_N173", "weight": 57.67}}, {"type": "Feature", "geometry": {"type": "Point", "coordinates": [0.01985, 51.43409]}, "properties": {"cell": "E540_N172", "weight": 44.67}}, {"type": "Feature", "geometry": {"type": "Point", "coordinates": [-0.02211, 51.46178]}, "properties": {"cell": "E537_N175", "weight": 42.67}}, {"type": "Feature", "geometry": {"type": "Point", "coordinates": [0.00626, 51.45231]}, "properties": {"cell": "E539_N174", "weight": 36.67}}, {"type": "Feature", "geometry": {"type": "Point", "coordinates": [-0.00812, 51.45255]}, "properties": {"cell": "E538_N174", "weight": 127.67}}, {"type": "Feature", "geometry": {"type": "Point", "coordinates": [-0.03573, 51.47999]}, "properties": {"cell": "E536_N177", "weight": 135.67}}, {"type": "Feature", "geometry": {"type": "Point", "coordinates": [-0.03765, 51.43506]}, "properties": {"cell": "E536_N172", "weight": 48.33}}, {"type": "Feature", "geometry": {"type": "Point", "coordinates": [-0.02289, 51.44381]}, "properties": {"cell": "E537_N173", "weight": 115.67}}, {"type": "Feature", "geometry": {"type": "Point", "coordinates": [-0.05241, 51.42632]}, "properties": {"cell": "E535_N171", "weight": 52.67}}, {"type": "Feature", "geometry": {"type": "Point", "coordinates": [-0.0505, 51.47125]}, "properties": {"cell": "E535_N176", "weight": 122.67}}, {"type": "Feature", "geometry": {"type": "Point", "coordinates": [0.00548, 51.43433]}, "properties": {"cell": "E539_N172", "weight": 55.33}}, {"type": "Feature", "geometry": {"type": "Point", "coordinates": [-0.19688, 51.41064]}, "properties": {"cell": "E525_N169", "weight": 55.67}}, {"type": "Feature", "geometry": {"type": "Point", "coordinates": [-0.2116, 51.40188]}, "properties": {"cell": "E524_N168", "weight": 7.33}}, {"type": "Feature", "geometry": {"type": "Point", "coordinates": [-0.16778, 51.41918]}, "properties": {"cell": "E527_N170", "weight": 28.0}}, {"type": "Feature", "geometry": {"type": "Point", "coordinates": [-0.16849, 51.40121]}, "properties": {"cell": "E527_N168", "weight": 50.0}}, {"type": "Feature", "geometry": {"type": "Point", "coordinates": [-0.21125, 51.41086]}, "properties": {"cell": "E524_N169", "weight": 15.0}}, {"type": "Feature", "geometry": {"type": "Point", "coordinates": [-0.15377, 51.40997]}, "properties": {"cell": "E528_N169", "weight": 66.67}}, {"type": "Feature", "geometry": {"type": "Point", "coordinates": [-0.1534, 51.41896]}, "properties": {"cell": "E528_N170", "weight": 31.33}}, {"type": "Feature", "geometry": {"type": "Point", "coordinates": [-0.2109, 51.41985]}, "properties": {"cell": "E524_N170", "weight": 11.33}}, {"type": "Feature", "geometry": {"type": "Point", "coordinates": [-0.16814, 51.4102]}, "properties": {"cell": "E527_N169", "weight": 24.33}}, {"type": "Feature", "geometry": {"type": "Point", "coordinates": [-0.13939, 51.40974]}, "properties": {"cell": "E529_N169", "weight": 20.33}}, {"type": "Feature", "geometry": {"type": "Point", "coordinates": [-0.22666, 51.38412]}, "properties": {"cell": "E523_N166", "weight": 29.33}}, {"type": "Feature", "geometry": {"type": "Point", "coordinates": [-0.13976, 51.40076]}, "properties": {"cell": "E529_N168", "weight": 40.67}}, {"type": "Feature", "geometry": {"type": "Point", "coordinates": [-0.18322, 51.39245]}, "properties": {"cell": "E526_N167", "weight": 34.67}}, {"type": "Feature", "geometry": {"type": "Point", "coordinates": [-0.23999, 51.4113]}, "properties": {"cell": "E522_N169", "weight": 12.33}}, {"type": "Feature", "geometry": {"type": "Point", "coordinates": [-0.19758, 51.39267]}, "properties": {"cell": "E525_N167", "weight": 28.33}}, {"type": "Feature", "geometry": {"type": "Point", "coordinates": [-0.19652, 51.41963]}, "properties": {"cell": "E525_N170", "weight": 56.33}}, {"type": "Feature", "geometry": {"type": "Point", "coordinates": [-0.22492, 51.42906]}, "properties": {"cell": "E523_N171", "weight": 9.0}}, {"type": "Feature", "geometry": {"type": "Point", "coordinates": [-0.24034, 51.40231]}, "properties": {"cell": "E522_N168", "weight": 14.67}}, {"type": "Feature", "geometry": {"type": "Point", "coordinates": [-0.19617, 51.42862]}, "properties": {"cell": "E525_N171", "weight": 11.33}}, {"type": "Feature", "geometry": {"type": "Point", "coordinates": [0.06663, 51.51421]}, "properties": {"cell": "E543_N181", "weight": 71.33}}, {"type": "Feature", "geometry": {"type": "Point", "coordinates": [0.03863, 51.53268]}, "properties": {"cell": "E541_N183", "weight": 63.67}}, {"type": "Feature", "geometry": {"type": "Point", "coordinates": [0.00942, 51.52419]}, "properties": {"cell": "E539_N182", "weight": 81.0}}, {"type": "Feature", "geometry": {"type": "Point", "coordinates": [0.02343, 51.51496]}, "properties": {"cell": "E540_N181", "weight": 60.33}}, {"type": "Feature", "geometry": {"type": "Point", "coordinates": [0.03783, 51.51471]}, "properties": {"cell": "E541_N181", "weight": 67.0}}, {"type": "Feature", "geometry": {"type": "Point", "coordinates": [0.05304, 51.53243]}, "properties": {"cell": "E542_N183", "weight": 127.0}}, {"type": "Feature", "geometry": {"type": "Point", "coordinates": [0.05345, 51.54142]}, "properties": {"cell": "E542_N184", "weight": 53.33}}, {"type": "Feature", "geometry": {"type": "Point", "coordinates": [0.05264, 51.52344]}, "properties": {"cell": "E542_N182", "weight": 62.33}}, {"type": "Feature", "geometry": {"type": "Point", "coordinates": [0.02502, 51.5509]}, "properties": {"cell": "E540_N185", "weight": 72.67}}, {"type": "Feature", "geometry": {"type": "Point", "coordinates": [0.02463, 51.54192]}, "properties": {"cell": "E540_N184", "weight": 207.33}}, {"type": "Feature", "geometry": {"type": "Point", "coordinates": [0.03904, 51.54167]}, "properties": {"cell": "E541_N184", "weight": 59.0}}, {"type": "Feature", "geometry": {"type": "Point", "coordinates": [0.05385, 51.5504]}, "properties": {"cell": "E542_N185", "weight": 79.67}}, {"type": "Feature", "geometry": {"type": "Point", "coordinates": [0.03944, 51.55065]}, "properties": {"cell": "E541_N185", "weight": 59.67}}, {"type": "Feature", "geometry": {"type": "Point", "coordinates": [0.02423, 51.53293]}, "properties": {"cell": "E540_N183", "weight": 70.0}}, {"type": "Feature", "geometry": {"type": "Point", "coordinates": [0.03823, 51.5237]}, "properties": {"cell": "E541_N182", "weight": 85.67}}, {"type": "Feature", "geometry": {"type": "Point", "coordinates": [0.05183, 51.50547]}, "properties": {"cell": "E542_N180", "weight": 36.67}}, {"type": "Feature", "geometry": {"type": "Point", "coordinates": [-0.0042, 51.54241]}, "properties": {"cell": "E538_N184", "weight": 210.33}}, {"type": "Feature", "geometry": {"type": "Point", "coordinates": [0.06745, 51.53218]}, "properties": {"cell": "E543_N183", "weight": 55.33}}, {"type": "Feature", "geometry": {"type": "Point", "coordinates": [0.00982, 51.53318]}, "properties": {"cell": "E539_N183", "weight": 84.0}}, {"type": "Feature", "geometry": {"type": "Point", "coordinates": [0.11358, 51.5943]}, "properties": {"cell": "E546_N190", "weight": 30.33}}, {"type": "Feature", "geometry": {"type": "Point", "coordinates": [0.06949, 51.5771]}, "properties": {"cell": "E543_N188", "weight": 30.67}}, {"type": "Feature", "geometry": {"type": "Point", "coordinates": [0.04185, 51.60457]}, "properties": {"cell": "E541_N191", "weight": 23.67}}, {"type": "Feature", "geometry": {"type": "Point", "coordinates": [0.12717, 51.57607]}, "properties": {"cell": "E547_N188", "weight": 36.0}}, {"type": "Feature", "geometry": {"type": "Point", "coordinates": [0.02702, 51.59583]}, "properties": {"cell": "E540_N190", "weight": 21.67}}, {"type": "Feature", "geometry": {"type": "Point", "coordinates": [0.05547, 51.58634]}, "properties": {"cell": "E542_N189", "weight": 22.67}}, {"type": "Feature", "geometry": {"type": "Point", "coordinates": [0.08309, 51.55888]}, "properties": {"cell": "E544_N186", "weight": 158.0}}, {"type": "Feature", "geometry": {"type": "Point", "coordinates": [0.05466, 51.56837]}, "properties": {"cell": "E542_N187", "weight": 31.67}}, {"type": "Feature", "geometry": {"type": "Point", "coordinates": [0.08514, 51.60381]}, "properties": {"cell": "E544_N191", "weight": 24.67}}, {"type": "Feature", "geometry": {"type": "Point", "coordinates": [0.0703, 51.59508]}, "properties": {"cell": "E543_N190", "weight": 29.67}}, {"type": "Feature", "geometry": {"type": "Point", "coordinates": [0.12885, 51.61201]}, "properties": {"cell": "E547_N192", "weight": 31.33}}, {"type": "Feature", "geometry": {"type": "Point", "coordinates": [0.06826, 51.55015]}, "properties": {"cell": "E543_N185", "weight": 87.0}}, {"type": "Feature", "geometry": {"type": "Point", "coordinates": [0.0975, 51.55862]}, "properties": {"cell": "E545_N186", "weight": 28.33}}, {"type": "Feature", "geometry": {"type": "Point", "coordinates": [0.02782, 51.6138]}, "properties": {"cell": "E540_N192", "weight": 14.67}}, {"type": "Feature", "geometry": {"type": "Point", "coordinates": [0.0835, 51.56786]}, "properties": {"cell": "E544_N187", "weight": 42.0}}, {"type": "Feature", "geometry": {"type": "Point", "coordinates": [0.04145, 51.59558]}, "properties": {"cell": "E541_N190", "weight": 17.33}}, {"type": "Feature", "geometry": {"type": "Point", "coordinates": [0.11233, 51.56735]}, "properties": {"cell": "E546_N187", "weight": 71.0}}, {"type": "Feature", "geometry": {"type": "Point", "coordinates": [0.02662, 51.58685]}, "properties": {"cell": "E540_N189", "weight": 17.0}}, {"type": "Feature", "geometry": {"type": "Point", "coordinates": [0.06867, 51.55913]}, "properties": {"cell": "E543_N186", "weight": 93.0}}, {"type": "Feature", "geometry": {"type": "Point", "coordinates": [0.02582, 51.56887]}, "properties": {"cell": "E540_N187", "weight": 19.0}}, {"type": "Feature", "geometry": {"type": "Point", "coordinates": [-0.23722, 51.4832]}, "properties": {"cell": "E522_N177", "weight": 15.33}}, {"type": "Feature", "geometry": {"type": "Point", "coordinates": [-0.26737, 51.44768]}, "properties": {"cell": "E520_N173", "weight": 8.67}}, {"type": "Feature", "geometry": {"type": "Point", "coordinates": [-0.35432, 51.43094]}, "properties": {"cell": "E514_N171", "weight": 8.67}}, {"type": "Feature", "geometry": {"type": "Point", "coordinates": [-0.29648, 51.43911]}, "properties": {"cell": "E518_N172", "weight": 19.0}}, {"type": "Feature", "geometry": {"type": "Point", "coordinates": [-0.35497, 51.41297]}, "properties": {"cell": "E514_N169", "weight": 13.33}}, {"type": "Feature", "geometry": {"type": "Point", "coordinates": [-0.3687, 51.43115]}, "properties": {"cell": "E513_N171", "weight": 18.0}}, {"type": "Feature", "geometry": {"type": "Point", "coordinates": [-0.31185, 51.41236]}, "properties": {"cell": "E517_N169", "weight": 16.67}}, {"type": "Feature", "geometry": {"type": "Point", "coordinates": [-0.36806, 51.44912]}, "properties": {"cell": "E513_N173", "weight": 22.67}}, {"type": "Feature", "geometry": {"type": "Point", "coordinates": [-0.29514, 51.47506]}, "properties": {"cell": "E518_N176", "weight": 11.67}}, {"type": "Feature", "geometry": {"type": "Point", "coordinates": [-0.25231, 51.46544]}, "properties": {"cell": "E521_N175", "weight": 17.33}}, {"type": "Feature", "geometry": {"type": "Point", "coordinates": [-0.29547, 51.46607]}, "properties": {"cell": "E518_N175", "weight": 23.0}}, {"type": "Feature", "geometry": {"type": "Point", "coordinates": [-0.32458, 51.4575]}, "properties": {"cell": "E516_N174", "weight": 16.33}}, {"type": "Feature", "geometry": {"type": "Point", "coordinates": [-0.29581, 51.45709]}, "properties": {"cell": "E518_N174", "weight": 39.33}}, {"type": "Feature", "geometry": {"type": "Point", "coordinates": [-0.33962, 51.43973]}, "properties": {"cell": "E515_N172", "weight": 13.33}}, {"type": "Feature", "geometry": {"type": "Point", "coordinates": [-0.34027, 51.42175]}, "properties": {"cell": "E515_N170", "weight": 17.33}}, {"type": "Feature", "geometry": {"type": "Point", "coordinates": [-0.32491, 51.44851]}, "properties": {"cell": "E516_N173", "weight": 25.67}}, {"type": "Feature", "geometry": {"type": "Point", "coordinates": [-0.354, 51.43993]}, "properties": {"cell": "E514_N172", "weight": 15.33}}, {"type": "Feature", "geometry": {"type": "Point", "coordinates": [-0.35335, 51.45791]}, "properties": {"cell": "E514_N174", "weight": 12.33}}, {"type": "Feature", "geometry": {"type": "Point", "coordinates": [-0.07928, 51.47172]}, "properties": {"cell": "E533_N176", "weight": 60.0}}, {"type": "Feature", "geometry": {"type": "Point", "coordinates": [-0.09329, 51.48094]}, "properties": {"cell": "E532_N177", "weight": 174.0}}, {"type": "Feature", "geometry": {"type": "Point", "coordinates": [-0.09254, 51.49892]}, "properties": {"cell": "E532_N179", "weight": 89.67}}, {"type": "Feature", "geometry": {"type": "Point", "coordinates": [-0.08079, 51.43578]}, "properties": {"cell": "E533_N172", "weight": 32.67}}, {"type": "Feature", "geometry": {"type": "Point", "coordinates": [-0.08003, 51.45375]}, "properties": {"cell": "E533_N174", "weight": 54.33}}, {"type": "Feature", "geometry": {"type": "Point", "coordinates": [-0.07852, 51.4897]}, "properties": {"cell": "E533_N178", "weight": 130.67}}, {"type": "Feature", "geometry": {"type": "Point", "coordinates": [-0.07815, 51.49868]}, "properties": {"cell": "E533_N179", "weight": 113.33}}, {"type": "Feature", "geometry": {"type": "Point", "coordinates": [-0.06451, 51.48047]}, "properties": {"cell": "E534_N177", "weight": 101.0}}, {"type": "Feature", "geometry": {"type": "Point", "coordinates": [-0.0789, 51.48071]}, "properties": {"cell": "E533_N177", "weight": 105.67}}, {"type": "Feature", "geometry": {"type": "Point", "coordinates": [-0.05127, 51.45328]}, "properties": {"cell": "E535_N174", "weight": 31.67}}, {"type": "Feature", "geometry": {"type": "Point", "coordinates": [-0.06375, 51.49845]}, "properties": {"cell": "E534_N179", "weight": 74.67}}, {"type": "Feature", "geometry": {"type": "Point", "coordinates": [-0.04935, 51.49821]}, "properties": {"cell": "E535_N179", "weight": 70.33}}, {"type": "Feature", "geometry": {"type": "Point", "coordinates": [-0.06413, 51.48946]}, "properties": {"cell": "E534_N178", "weight": 71.0}}, {"type": "Feature", "geometry": {"type": "Point", "coordinates": [-0.07966, 51.46274]}, "properties": {"cell": "E533_N175", "weight": 28.67}}, {"type": "Feature", "geometry": {"type": "Point", "coordinates": [-0.03495, 51.49797]}, "properties": {"cell": "E536_N179", "weight": 33.67}}, {"type": "Feature", "geometry": {"type": "Point", "coordinates": [-0.06489, 51.47149]}, "properties": {"cell": "E534_N176", "weight": 120.33}}, {"type": "Feature", "geometry": {"type": "Point", "coordinates": [-0.14085, 51.3738]}, "properties": {"cell": "E529_N165", "weight": 19.0}}, {"type": "Feature", "geometry": {"type": "Point", "coordinates": [-0.12723, 51.35559]}, "properties": {"cell": "E530_N163", "weight": 17.67}}, {"type": "Feature", "geometry": {"type": "Point", "coordinates": [-0.19935, 51.34773]}, "properties": {"cell": "E525_N162", "weight": 9.33}}, {"type": "Feature", "geometry": {"type": "Point", "coordinates": [-0.16993, 51.36526]}, "properties": {"cell": "E527_N164", "weight": 17.67}}, {"type": "Feature", "geometry": {"type": "Point", "coordinates": [-0.15666, 51.33808]}, "properties": {"cell": "E528_N161", "weight": 10.67}}, {"type": "Feature", "geometry": {"type": "Point", "coordinates": [-0.2137, 51.34795]}, "properties": {"cell": "E524_N162", "weight": 7.33}}, {"type": "Feature", "geometry": {"type": "Point", "coordinates": [-0.22736, 51.36614]}, "properties": {"cell": "E523_N164", "weight": 14.67}}, {"type": "Feature", "geometry": {"type": "Point", "coordinates": [-0.18357, 51.38346]}, "properties": {"cell": "E526_N166", "weight": 42.33}}, {"type": "Feature", "geometry": {"type": "Point", "coordinates": [-0.21265, 51.37491]}, "properties": {"cell": "E524_N165", "weight": 9.0}}, {"type": "Feature", "geometry": {"type": "Point", "coordinates": [-0.18429, 51.36549]}, "properties": {"cell": "E526_N164", "weight": 85.67}}, {"type": "Feature", "geometry": {"type": "Point", "coordinates": [-0.19829, 51.37469]}, "properties": {"cell": "E525_N165", "weight": 17.0}}, {"type": "Feature", "geometry": {"type": "Point", "coordinates": [-0.18464, 51.3565]}, "properties": {"cell": "E526_N163", "weight": 18.67}}, {"type": "Feature", "geometry": {"type": "Point", "coordinates": [-0.19864, 51.36571]}, "properties": {"cell": "E525_N164", "weight": 15.0}}, {"type": "Feature", "geometry": {"type": "Point", "coordinates": [-0.16957, 51.37425]}, "properties": {"cell": "E527_N165", "weight": 18.67}}, {"type": "Feature", "geometry": {"type": "Point", "coordinates": [-0.15557, 51.36504]}, "properties": {"cell": "E528_N164", "weight": 19.33}}, {"type": "Feature", "geometry": {"type": "Point", "coordinates": [-0.15593, 51.35605]}, "properties": {"cell": "E528_N163", "weight": 22.67}}, {"type": "Feature", "geometry": {"type": "Point", "coordinates": [-0.16921, 51.38324]}, "properties": {"cell": "E527_N166", "weight": 27.67}}, {"type": "Feature", "geometry": {"type": "Point", "coordinates": [-0.06222, 51.53439]}, "properties": {"cell": "E534_N183", "weight": 82.33}}, {"type": "Feature", "geometry": {"type": "Point", "coordinates": [-0.0626, 51.5254]}, "properties": {"cell": "E534_N182", "weight": 101.67}}, {"type": "Feature", "geometry": {"type": "Point", "coordinates": [-0.00616, 51.49748]}, "properties": {"cell": "E538_N179", "weight": 55.33}}, {"type": "Feature", "geometry": {"type": "Point", "coordinates": [-0.03341, 51.53391]}, "properties": {"cell": "E536_N183", "weight": 132.0}}, {"type": "Feature", "geometry": {"type": "Point", "coordinates": [-0.01939, 51.52468]}, "properties": {"cell": "E537_N182", "weight": 70.0}}, {"type": "Feature", "geometry": {"type": "Point", "coordinates": [-0.00537, 51.51545]}, "properties": {"cell": "E538_N181", "weight": 89.67}}, {"type": "Feature", "geometry": {"type": "Point", "coordinates": [-0.01978, 51.5157]}, "properties": {"cell": "E537_N181", "weight": 90.67}}, {"type": "Feature", "geometry": {"type": "Point", "coordinates": [-0.0482, 51.52517]}, "properties": {"cell": "E535_N182", "weight": 78.33}}, {"type": "Feature", "geometry": {"type": "Point", "coordinates": [-0.03379, 51.52493]}, "properties": {"cell": "E536_N182", "weight": 63.0}}, {"type": "Feature", "geometry": {"type": "Point", "coordinates": [-0.02056, 51.49772]}, "properties": {"cell": "E537_N179", "weight": 74.67}}, {"type": "Feature", "geometry": {"type": "Point", "coordinates": [-0.04858, 51.51618]}, "properties": {"cell": "E535_N181", "weight": 67.33}}, {"type": "Feature", "geometry": {"type": "Point", "coordinates": [-0.06337, 51.50743]}, "properties": {"cell": "E534_N180", "weight": 38.67}}, {"type": "Feature", "geometry": {"type": "Point", "coordinates": [-0.04897, 51.50719]}, "properties": {"cell": "E535_N180", "weight": 60.33}}, {"type": "Feature", "geometry": {"type": "Point", "coordinates": [-0.07739, 51.51666]}, "properties": {"cell": "E533_N181", "weight": 85.67}}, {"type": "Feature", "geometry": {"type": "Point", "coordinates": [-0.07701, 51.52564]}, "properties": {"cell": "E533_N182", "weight": 99.67}}, {"type": "Feature", "geometry": {"type": "Point", "coordinates": [-0.06299, 51.51642]}, "properties": {"cell": "E534_N181", "weight": 78.67}}, {"type": "Feature", "geometry": {"type": "Point", "coordinates": [0.01101, 51.56014]}, "properties": {"cell": "E539_N186", "weight": 51.0}}, {"type": "Feature", "geometry": {"type": "Point", "coordinates": [-0.00341, 51.56038]}, "properties": {"cell": "E538_N186", "weight": 114.33}}, {"type": "Feature", "geometry": {"type": "Point", "coordinates": [-0.01626, 51.59657]}, "properties": {"cell": "E537_N190", "weight": 35.67}}, {"type": "Feature", "geometry": {"type": "Point", "coordinates": [-0.00025, 51.63227]}, "properties": {"cell": "E538_N194", "weight": 25.0}}, {"type": "Feature", "geometry": {"type": "Point", "coordinates": [-0.01509, 51.62353]}, "properties": {"cell": "E537_N193", "weight": 14.0}}, {"type": "Feature", "geometry": {"type": "Point", "coordinates": [-0.00262, 51.57835]}, "properties": {"cell": "E538_N188", "weight": 62.67}}, {"type": "Feature", "geometry": {"type": "Point", "coordinates": [-0.00144, 51.60531]}, "properties": {"cell": "E538_N191", "weight": 22.0}}, {"type": "Feature", "geometry": {"type": "Point", "coordinates": [0.01339, 51.61405]}, "properties": {"cell": "E539_N192", "weight": 24.33}}, {"type": "Feature", "geometry": {"type": "Point", "coordinates": [-0.04589, 51.57908]}, "properties": {"cell": "E535_N188", "weight": 83.67}}, {"type": "Feature", "geometry": {"type": "Point", "coordinates": [-0.03069, 51.59681]}, "properties": {"cell": "E536_N190", "weight": 40.33}}, {"type": "Feature", "geometry": {"type": "Point", "coordinates": [-0.01665, 51.58758]}, "properties": {"cell": "E537_N189", "weight": 59.33}}, {"type": "Feature", "geometry": {"type": "Point", "coordinates": [-0.01548, 51.61454]}, "properties": {"cell": "E537_N192", "weight": 24.0}}, {"type": "Feature", "geometry": {"type": "Point", "coordinates": [-0.03185, 51.56986]}, "properties": {"cell": "E536_N187", "weight": 73.67}}, {"type": "Feature", "geometry": {"type": "Point", "coordinates": [-0.01783, 51.56063]}, "properties": {"cell": "E537_N186", "weight": 56.33}}, {"type": "Feature", "geometry": {"type": "Point", "coordinates": [0.0114, 51.56912]}, "properties": {"cell": "E539_N187", "weight": 58.33}}, {"type": "Feature", "geometry": {"type": "Point", "coordinates": [-0.03147, 51.57884]}, "properties": {"cell": "E536_N188", "weight": 50.0}}, {"type": "Feature", "geometry": {"type": "Point", "coordinates": [-0.02991, 51.61479]}, "properties": {"cell": "E536_N192", "weight": 29.67}}, {"type": "Feature", "geometry": {"type": "Point", "coordinates": [-0.03108, 51.58783]}, "properties": {"cell": "E536_N189", "weight": 42.0}}, {"type": "Feature", "geometry": {"type": "Point", "coordinates": [-0.00223, 51.58734]}, "properties": {"cell": "E538_N189", "weight": 43.0}}, {"type": "Feature", "geometry": {"type": "Point", "coordinates": [-0.15232, 51.44592]}, "properties": {"cell": "E528_N173", "weight": 29.33}}, {"type": "Feature", "geometry": {"type": "Point", "coordinates": [-0.15268, 51.43693]}, "properties": {"cell": "E528_N172", "weight": 27.0}}, {"type": "Feature", "geometry": {"type": "Point", "coordinates": [-0.18144, 51.43738]}, "properties": {"cell": "E526_N172", "weight": 38.33}}, {"type": "Feature", "geometry": {"type": "Point", "coordinates": [-0.20949, 51.4558]}, "properties": {"cell": "E524_N174", "weight": 23.67}}, {"type": "Feature", "geometry": {"type": "Point", "coordinates": [-0.19511, 51.45558]}, "properties": {"cell": "E525_N174", "weight": 72.0}}, {"type": "Feature", "geometry": {"type": "Point", "coordinates": [-0.15304, 51.42795]}, "properties": {"cell": "E528_N171", "weight": 43.0}}, {"type": "Feature", "geometry": {"type": "Point", "coordinates": [-0.16742, 51.42817]}, "properties": {"cell": "E527_N171", "weight": 125.0}}, {"type": "Feature", "geometry": {"type": "Point", "coordinates": [-0.16598, 51.46412]}, "properties": {"cell": "E527_N175", "weight": 84.33}}, {"type": "Feature", "geometry": {"type": "Point", "coordinates": [-0.1667, 51.44615]}, "properties": {"cell": "E527_N173", "weight": 33.33}}, {"type": "Feature", "geometry": {"type": "Point", "coordinates": [-0.16634, 51.45513]}, "properties": {"cell": "E527_N174", "weight": 48.0}}, {"type": "Feature", "geometry": {"type": "Point", "coordinates": [-0.15086, 51.48187]}, "properties": {"cell": "E528_N177", "weight": 67.33}}, {"type": "Feature", "geometry": {"type": "Point", "coordinates": [-0.23861, 51.44725]}, "properties": {"cell": "E522_N173", "weight": 62.0}}, {"type": "Feature", "geometry": {"type": "Point", "coordinates": [-0.16562, 51.47311]}, "properties": {"cell": "E527_N176", "weight": 44.0}}, {"type": "Feature", "geometry": {"type": "Point", "coordinates": [-0.15159, 51.46389]}, "properties": {"cell": "E528_N175", "weight": 42.0}}, {"type": "Feature", "geometry": {"type": "Point", "coordinates": [-0.19546, 51.44659]}, "properties": {"cell": "E525_N173", "weight": 31.67}}, {"type": "Feature", "geometry": {"type": "Point", "coordinates": [-0.22353, 51.46501]}, "properties": {"cell": "E523_N175", "weight": 34.33}}, {"type": "Feature", "geometry": {"type": "Point", "coordinates": [-0.18108, 51.44637]}, "properties": {"cell": "E526_N173", "weight": 34.33}}, {"type": "Feature", "geometry": {"type": "Point", "coordinates": [-0.20984, 51.44681]}, "properties": {"cell": "E524_N173", "weight": 27.0}}, {"type": "Feature", "geometry": {"type": "Point", "coordinates": [-0.23826, 51.45623]}, "properties": {"cell": "E522_N174", "weight": 34.33}}, {"type": "Feature", "geometry": {"type": "Point", "coordinates": [-0.1775, 51.53624]}, "properties": {"cell": "E526_N183", "weight": 26.67}}, {"type": "Feature", "geometry": {"type": "Point", "coordinates": [-0.19262, 51.51849]}, "properties": {"cell": "E525_N181", "weight": 85.67}}, {"type": "Feature", "geometry": {"type": "Point", "coordinates": [-0.16381, 51.51804]}, "properties": {"cell": "E527_N181", "weight": 61.0}}, {"type": "Feature", "geometry": {"type": "Point", "coordinates": [-0.1505, 51.49085]}, "properties": {"cell": "E528_N178", "weight": 125.33}}, {"type": "Feature", "geometry": {"type": "Point", "coordinates": [-0.16345, 51.52703]}, "properties": {"cell": "E527_N182", "weight": 89.67}}, {"type": "Feature", "geometry": {"type": "Point", "coordinates": [-0.17822, 51.51826]}, "properties": {"cell": "E526_N181", "weight": 68.33}}, {"type": "Feature", "geometry": {"type": "Point", "coordinates": [-0.17857, 51.50928]}, "properties": {"cell": "E526_N180", "weight": 45.33}}, {"type": "Feature", "geometry": {"type": "Point", "coordinates": [-0.17786, 51.52725]}, "properties": {"cell": "E526_N182", "weight": 36.0}}, {"type": "Feature", "geometry": {"type": "Point", "coordinates": [-0.19227, 51.52747]}, "properties": {"cell": "E525_N182", "weight": 26.0}}, {"type": "Feature", "geometry": {"type": "Point", "coordinates": [-0.14941, 51.51781]}, "properties": {"cell": "E528_N181", "weight": 51.67}}, {"type": "Feature", "geometry": {"type": "Point", "coordinates": [-0.13537, 51.5086]}, "properties": {"cell": "E529_N180", "weight": 523.67}}, {"type": "Feature", "geometry": {"type": "Point", "coordinates": [-0.1361, 51.49063]}, "properties": {"cell": "E529_N178", "weight": 65.33}}, {"type": "Feature", "geometry": {"type": "Point", "coordinates": [-0.14977, 51.50883]}, "properties": {"cell": "E528_N180", "weight": 428.0}}]}