{"type": "FeatureCollection", "features": [{"type": "Feature", "geometry": {"type": "Point", "coordinates": [-0.1712, 51.52293]}, "properties": {"name": "police_6493661730", "kind": "station"}}, {"type": "Feature", "geometry": {"type": "Point", "coordinates": [-0.13963, 51.54089]}, "properties": {"name": "British Transport Police Force Headquarters", "kind": "base"}}, {"type": "Feature", "geometry": {"type": "Point", "coordinates": [-0.32938, 51.44793]}, "properties": {"name": "Twickenham Police Station", "kind": "station"}}, {"type": "Feature", "geometry": {"type": "Point", "coordinates": [-0.10244, 51.58977]}, "properties": {"name": "Turnpike Parade Safer Neighbourhood Team Base", "kind": "base"}}, {"type": "Feature", "geometry": {"type": "Point", "coordinates": [-0.18709, 51.43746]}, "properties": {"name": "Earlsfield Police Station", "kind": "station"}}, {"type": "Feature", "geometry": {"type": "Point", "coordinates": [-0.10573, 51.49137]}, "properties": {"name": "police_487978258", "kind": "station"}}, {"type": "Feature", "geometry": {"type": "Point", "coordinates": [-0.08442, 51.41975]}, "properties": {"name": "Gipsy Hill police station", "kind": "station"}}, {"type": "Feature", "geometry": {"type": "Point", "coordinates": [-0.18654, 51.40848]}, "properties": {"name": "Roads and Transport Policing Command West Garage (TDV)", "kind": "station"}}, {"type": "Feature", "geometry": {"type": "Point", "coordinates": [0.07345, 51.52994]}, "properties": {"name": "Fresh Wharf Custody Base", "kind": "base"}}, {"type": "Feature", "geometry": {"type": "Point", "coordinates": [-0.01449, 51.43081]}, "properties": {"name": "Catford Police Station", "kind": "station"}}, {"type": "Feature", "geometry": {"type": "Point", "coordinates": [-0.0794, 51.5175]}, "properties": {"name": "Bishopsgate Police Station", "kind": "station"}}, {"type": "Feature", "geometry": {"type": "Point", "coordinates": [-0.16558, 51.50811]}, "properties": {"name": "The Old Police House", "kind": "station"}}, {"type": "Feature", "geometry": {"type": "Point", "coordinates": [0.1493, 51.45702]}, "properties": {"name": "Bexleyheath Police Station", "kind": "station"}}, {"type": "Feature", "geometry": {"type": "Point", "coordinates": [0.18621, 51.58203]}, "properties": {"name": "Romford Police Station", "kind": "station"}}, {"type": "Feature", "geometry": {"type": "Point", "coordinates": [-0.09567, 51.37059]}, "properties": {"name": "Croydon Police Station", "kind": "station"}}, {"type": "Feature", "geometry": {"type": "Point", "coordinates": [-0.11291, 51.46153]}, "properties": {"name": "Metropolitan Police Coldharbour Ward", "kind": "station"}}, {"type": "Feature", "geometry": {"type": "Point", "coordinates": [-0.20528, 51.53485]}, "properties": {"name": "Kilburn Police station", "kind": "station"}}, {"type": "Feature", "geometry": {"type": "Point", "coordinates": [-0.19863, 51.45746]}, "properties": {"name": "Wandsworth Police Station", "kind": "station"}}, {"type": "Feature", "geometry": {"type": "Point", "coordinates": [-0.01254, 51.50864]}, "properties": {"name": "police_196769282", "kind": "station"}}, {"type": "Feature", "geometry": {"type": "Point", "coordinates": [-0.19048, 51.36116]}, "properties": {"name": "Sutton Police Station", "kind": "station"}}, {"type": "Feature", "geometry": {"type": "Point", "coordinates": [-0.14401, 51.52655]}, "properties": {"name": "Albany Street Police Station", "kind": "station"}}, {"type": "Feature", "geometry": {"type": "Point", "coordinates": [-0.11248, 51.60296]}, "properties": {"name": "Wood Green Police Station", "kind": "station"}}, {"type": "Feature", "geometry": {"type": "Point", "coordinates": [-0.43502, 51.52506]}, "properties": {"name": "Hayes Police Station", "kind": "station"}}, {"type": "Feature", "geometry": {"type": "Point", "coordinates": [-0.1108, 51.50245]}, "properties": {"name": "British Transport Police", "kind": "station"}}, {"type": "Feature", "geometry": {"type": "Point", "coordinates": [-0.12427, 51.50276]}, "properties": {"name": "New Scotland Yard", "kind": "station"}}, {"type": "Feature", "geometry": {"type": "Point", "coordinates": [0.0307, 51.54652]}, "properties": {"name": "Forest Gate Police Station", "kind": "station"}}, {"type": "Feature", "geometry": {"type": "Point", "coordinates": [0.08017, 51.56014]}, "properties": {"name": "Ilford Police Station", "kind": "station"}}, {"type": "Feature", "geometry": {"type": "Point", "coordinates": [-0.09936, 51.3854]}, "properties": {"name": "Croydon Custody Centre", "kind": "station"}}, {"type": "Feature", "geometry": {"type": "Point", "coordinates": [0.19127, 51.52053]}, "properties": {"name": "Rainham Police Station", "kind": "station"}}, {"type": "Feature", "geometry": {"type": "Point", "coordinates": [-0.22445, 51.49482]}, "properties": {"name": "Hammersmith Police Station", "kind": "station"}}, {"type": "Feature", "geometry": {"type": "Point", "coordinates": [0.02287, 51.61184]}, "properties": {"name": "Woodford Police Station", "kind": "station"}}, {"type": "Feature", "geometry": {"type": "Point", "coordinates": [-0.11497, 51.33795]}, "properties": {"name": "Purley and Kenley Wards", "kind": "station"}}, {"type": "Feature", "geometry": {"type": "Point", "coordinates": [-0.09569, 51.4996]}, "properties": {"name": "Overseas Visitors Records Office", "kind": "station"}}, {"type": "Feature", "geometry": {"type": "Point", "coordinates": [-0.22958, 51.45529]}, "properties": {"name": "West Putney Ward Metropolitain Police", "kind": "station"}}, {"type": "Feature", "geometry": {"type": "Point", "coordinates": [-0.24092, 51.59687]}, "properties": {"name": "Colindale Police Station", "kind": "station"}}, {"type": "Feature", "geometry": {"type": "Point", "coordinates": [-0.14869, 51.48779]}, "properties": {"name": "National Visual Forensics Centre", "kind": "station"}}, {"type": "Feature", "geometry": {"type": "Point", "coordinates": [0.16546, 51.54503]}, "properties": {"name": "Dagenham Police Station", "kind": "station"}}, {"type": "Feature", "geometry": {"type": "Point", "coordinates": [-0.20355, 51.50142]}, "properties": {"name": "Parks Police", "kind": "station"}}, {"type": "Feature", "geometry": {"type": "Point", "coordinates": [-0.12963, 51.43034]}, "properties": {"name": "Streatham Police Station", "kind": "station"}}, {"type": "Feature", "geometry": {"type": "Point", "coordinates": [-0.22639, 51.40921]}, "properties": {"name": "Dundonald, Raynes Park & West Barnes Wards Metropolitan Police Station", "kind": "station"}}, {"type": "Feature", "geometry": {"type": "Point", "coordinates": [-0.02444, 51.5841]}, "properties": {"name": "police_160391564", "kind": "station"}}, {"type": "Feature", "geometry": {"type": "Point", "coordinates": [-0.36422, 51.46908]}, "properties": {"name": "Hounslow Police Station", "kind": "station"}}, {"type": "Feature", "geometry": {"type": "Point", "coordinates": [-0.03367, 51.35735]}, "properties": {"name": "police_111151034", "kind": "station"}}, {"type": "Feature", "geometry": {"type": "Point", "coordinates": [0.03848, 51.30835]}, "properties": {"name": "Biggin Hill", "kind": "station"}}, {"type": "Feature", "geometry": {"type": "Point", "coordinates": [-0.16221, 51.46467]}, "properties": {"name": "Lavender Hill Police Station", "kind": "station"}}, {"type": "Feature", "geometry": {"type": "Point", "coordinates": [-0.02519, 51.60818]}, "properties": {"name": "Larkswood & Valley Police", "kind": "station"}}, {"type": "Feature", "geometry": {"type": "Point", "coordinates": [-0.14074, 51.53927]}, "properties": {"name": "Camden Town with Primrose Hill Ward", "kind": "station"}}, {"type": "Feature", "geometry": {"type": "Point", "coordinates": [-0.08117, 51.51789]}, "properties": {"name": "police_1390303288", "kind": "station"}}, {"type": "Feature", "geometry": {"type": "Point", "coordinates": [0.10472, 51.52855]}, "properties": {"name": "police_13475138021", "kind": "station"}}, {"type": "Feature", "geometry": {"type": "Point", "coordinates": [-0.31724, 51.55907]}, "properties": {"name": "Metropolitan Police (Sudbury Ward)", "kind": "station"}}, {"type": "Feature", "geometry": {"type": "Point", "coordinates": [-0.25462, 51.54189]}, "properties": {"name": "Harlesden Police Station", "kind": "station"}}, {"type": "Feature", "geometry": {"type": "Point", "coordinates": [-0.42748, 51.57604]}, "properties": {"name": "Ruislip Police Station", "kind": "station"}}, {"type": "Feature", "geometry": {"type": "Point", "coordinates": [-0.38498, 51.5958]}, "properties": {"name": "Pinner Police Station", "kind": "station"}}, {"type": "Feature", "geometry": {"type": "Point", "coordinates": [-0.14201, 51.5497]}, "properties": {"name": "Kentish Town Police Station", "kind": "station"}}, {"type": "Feature", "geometry": {"type": "Point", "coordinates": [-0.00987, 51.4634]}, "properties": {"name": "Lewisham Police Station", "kind": "station"}}, {"type": "Feature", "geometry": {"type": "Point", "coordinates": [-0.01517, 51.37573]}, "properties": {"name": "West Wickham Ward", "kind": "station"}}, {"type": "Feature", "geometry": {"type": "Point", "coordinates": [-0.30567, 51.55154]}, "properties": {"name": "Wembley Police Station", "kind": "station"}}, {"type": "Feature", "geometry": {"type": "Point", "coordinates": [-0.20343, 51.42121]}, "properties": {"name": "Wimbledon Police Station", "kind": "station"}}, {"type": "Feature", "geometry": {"type": "Point", "coordinates": [0.00296, 51.47305]}, "properties": {"name": "Greenwich Park Police", "kind": "station"}}, {"type": "Feature", "geometry": {"type": "Point", "coordinates": [-0.1131, 51.46477]}, "properties": {"name": "Brixton Police Station", "kind": "station"}}, {"type": "Feature", "geometry": {"type": "Point", "coordinates": [-0.06963, 51.59083]}, "properties": {"name": "Tottenham Police Station", "kind": "station"}}, {"type": "Feature", "geometry": {"type": "Point", "coordinates": [-0.37303, 51.40969]}, "properties": {"name": "police_1779488279", "kind": "station"}}, {"type": "Feature", "geometry": {"type": "Point", "coordinates": [-0.026, 51.51053]}, "properties": {"name": "Limehouse Police Station", "kind": "station"}}, {"type": "Feature", "geometry": {"type": "Point", "coordinates": [0.06761, 51.54123]}, "properties": {"name": "Hertford House", "kind": "station"}}, {"type": "Feature", "geometry": {"type": "Point", "coordinates": [0.02535, 51.52285]}, "properties": {"name": "Plaistow Police Station", "kind": "station"}}, {"type": "Feature", "geometry": {"type": "Point", "coordinates": [0.01788, 51.39934]}, "properties": {"name": "Bromley Police Station", "kind": "station"}}, {"type": "Feature", "geometry": {"type": "Point", "coordinates": [-0.12481, 51.57954]}, "properties": {"name": "police_3662044364", "kind": "station"}}, {"type": "Feature", "geometry": {"type": "Point", "coordinates": [-0.07141, 51.51823]}, "properties": {"name": "Spitalfields and Bangaltown and Weaversguards", "kind": "station"}}, {"type": "Feature", "geometry": {"type": "Point", "coordinates": [0.0799, 51.53651]}, "properties": {"name": "Barking Police", "kind": "station"}}, {"type": "Feature", "geometry": {"type": "Point", "coordinates": [-0.05328, 51.52821]}, "properties": {"name": "Bethnal Green Police Station", "kind": "station"}}, {"type": "Feature", "geometry": {"type": "Point", "coordinates": [-0.14257, 51.45288]}, "properties": {"name": "police_615494004", "kind": "station"}}, {"type": "Feature", "geometry": {"type": "Point", "coordinates": [-0.11761, 51.49437]}, "properties": {"name": "Metropolitan Police Forensic Science Laboratory", "kind": "station"}}, {"type": "Feature", "geometry": {"type": "Point", "coordinates": [-0.13292, 51.47133]}, "properties": {"name": "police_1726841079", "kind": "station"}}, {"type": "Feature", "geometry": {"type": "Point", "coordinates": [0.21994, 51.55915]}, "properties": {"name": "Hornchurch Police Station", "kind": "station"}}, {"type": "Feature", "geometry": {"type": "Point", "coordinates": [-0.02775, 51.58983]}, "properties": {"name": "police_2139997784", "kind": "station"}}, {"type": "Feature", "geometry": {"type": "Point", "coordinates": [-0.00257, 51.5418]}, "properties": {"name": "Stratford Police Station", "kind": "station"}}, {"type": "Feature", "geometry": {"type": "Point", "coordinates": [0.20008, 51.5495]}, "properties": {"name": "Elm Park Ward", "kind": "station"}}, {"type": "Feature", "geometry": {"type": "Point", "coordinates": [-0.26478, 51.56476]}, "properties": {"name": "police_729403095", "kind": "station"}}, {"type": "Feature", "geometry": {"type": "Point", "coordinates": [-0.11672, 51.56215]}, "properties": {"name": "Holloway Police Station", "kind": "station"}}, {"type": "Feature", "geometry": {"type": "Point", "coordinates": [-0.06108, 51.62233]}, "properties": {"name": "Edmonton Police Station", "kind": "station"}}, {"type": "Feature", "geometry": {"type": "Point", "coordinates": [-0.12505, 51.50979]}, "properties": {"name": "Charing Cross Police Station", "kind": "station"}}, {"type": "Feature", "geometry": {"type": "Point", "coordinates": [-0.11668, 51.59533]}, "properties": {"name": "Quicksilver Patrol Base", "kind": "base"}}, {"type": "Feature", "geometry": {"type": "Point", "coordinates": [-0.03192, 51.43978]}, "properties": {"name": "police_8563297629", "kind": "station"}}, {"type": "Feature", "geometry": {"type": "Point", "coordinates": [-0.19622, 51.55367]}, "properties": {"name": "West Hampstead Police Station", "kind": "station"}}, {"type": "Feature", "geometry": {"type": "Point", "coordinates": [-0.46789, 51.48246]}, "properties": {"name": "Heathrow Police Station", "kind": "station"}}, {"type": "Feature", "geometry": {"type": "Point", "coordinates": [0.24912, 51.5554]}, "properties": {"name": "Metropolitan Police Upminster & Cranham Wards", "kind": "station"}}, {"type": "Feature", "geometry": {"type": "Point", "coordinates": [-0.36747, 51.5489]}, "properties": {"name": "Metropolitan Police ward office", "kind": "station"}}, {"type": "Feature", "geometry": {"type": "Point", "coordinates": [-0.12077, 51.49016]}, "properties": {"name": "National Crime Agency", "kind": "station"}}, {"type": "Feature", "geometry": {"type": "Point", "coordinates": [0.11499, 51.39421]}, "properties": {"name": "Cray Valley East & Cray Valley West Wards", "kind": "station"}}, {"type": "Feature", "geometry": {"type": "Point", "coordinates": [-0.34848, 51.56846]}, "properties": {"name": "police_135561011", "kind": "station"}}, {"type": "Feature", "geometry": {"type": "Point", "coordinates": [-0.17147, 51.5545]}, "properties": {"name": "Hampstead Police Station", "kind": "station"}}, {"type": "Feature", "geometry": {"type": "Point", "coordinates": [-0.06469, 51.47445]}, "properties": {"name": "Peckham Police Station", "kind": "station"}}, {"type": "Feature", "geometry": {"type": "Point", "coordinates": [-0.33366, 51.57795]}, "properties": {"name": "Harrow Central Police Station", "kind": "station"}}, {"type": "Feature", "geometry": {"type": "Point", "coordinates": [-0.22315, 51.49099]}, "properties": {"name": "British Transport Police Hammersmith", "kind": "station"}}, {"type": "Feature", "geometry": {"type": "Point", "coordinates": [-0.09886, 51.52449]}, "properties": {"name": "Clerkenwell and Bunhill Wards Police Station", "kind": "station"}}, {"type": "Feature", "geometry": {"type": "Point", "coordinates": [-0.06004, 51.50281]}, "properties": {"name": "Metropolitan Police Service Boat Yard", "kind": "station"}}, {"type": "Feature", "geometry": {"type": "Point", "coordinates": [-0.01241, 51.57601]}, "properties": {"name": "police_452820422", "kind": "station"}}, {"type": "Feature", "geometry": {"type": "Point", "coordinates": [-0.38625, 51.48872]}, "properties": {"name": "police_1231129700", "kind": "station"}}, {"type": "Feature", "geometry": {"type": "Point", "coordinates": [-0.14131, 51.51147]}, "properties": {"name": "West End Central Police Station", "kind": "station"}}, {"type": "Feature", "geometry": {"type": "Point", "coordinates": [-0.16211, 51.64323]}, "properties": {"name": "Safer Neighbourhoods", "kind": "station"}}, {"type": "Feature", "geometry": {"type": "Point", "coordinates": [-0.11083, 51.5338]}, "properties": {"name": "Islington Police Station", "kind": "station"}}, {"type": "Feature", "geometry": {"type": "Point", "coordinates": [0.0805, 51.5884]}, "properties": {"name": "Barkingside Police Station", "kind": "station"}}, {"type": "Feature", "geometry": {"type": "Point", "coordinates": [-0.20294, 51.5087]}, "properties": {"name": "Notting Hill Police Station", "kind": "station"}}, {"type": "Feature", "geometry": {"type": "Point", "coordinates": [-0.10281, 51.51706]}, "properties": {"name": "Snow Hill Police Station", "kind": "station"}}, {"type": "Feature", "geometry": {"type": "Point", "coordinates": [-0.48081, 51.54914]}, "properties": {"name": "Uxbridge Police Station", "kind": "station"}}, {"type": "Feature", "geometry": {"type": "Point", "coordinates": [-0.27487, 51.50877]}, "properties": {"name": "MPS Acton", "kind": "station"}}, {"type": "Feature", "geometry": {"type": "Point", "coordinates": [-0.05858, 51.50313]}, "properties": {"name": "Metropolitan Police Service Marine Unit", "kind": "station"}}, {"type": "Feature", "geometry": {"type": "Point", "coordinates": [-0.02391, 51.528]}, "properties": {"name": "Bow Road Police Station", "kind": "station"}}, {"type": "Feature", "geometry": {"type": "Point", "coordinates": [-0.41637, 51.55701]}, "properties": {"name": "RAF Police", "kind": "station"}}, {"type": "Feature", "geometry": {"type": "Point", "coordinates": [-0.09139, 51.51547]}, "properties": {"name": "City of London Police", "kind": "station"}}, {"type": "Feature", "geometry": {"type": "Point", "coordinates": [-0.09755, 51.48936]}, "properties": {"name": "Walworth Police Station", "kind": "station"}}, {"type": "Feature", "geometry": {"type": "Point", "coordinates": [-0.40413, 51.44649]}, "properties": {"name": "Feltham Police Station", "kind": "station"}}, {"type": "Feature", "geometry": {"type": "Point", "coordinates": [0.06372, 51.49983]}, "properties": {"name": "police_222885445", "kind": "station"}}, {"type": "Feature", "geometry": {"type": "Point", "coordinates": [0.09562, 51.4865]}, "properties": {"name": "Plumstead Police Station", "kind": "station"}}, {"type": "Feature", "geometry": {"type": "Point", "coordinates": [-0.31004, 51.51207]}, "properties": {"name": "Ealing Police Station", "kind": "station"}}, {"type": "Feature", "geometry": {"type": "Point", "coordinates": [-0.30685, 51.40818]}, "properties": {"name": "Kingston Police Station", "kind": "station"}}, {"type": "Feature", "geometry": {"type": "Point", "coordinates": [-0.1305, 51.39947]}, "properties": {"name": "Pollards Hill Police Station", "kind": "station"}}, {"type": "Feature", "geometry": {"type": "Point", "coordinates": [-0.37207, 51.51109]}, "properties": {"name": "Southall Police Station", "kind": "station"}}, {"type": "Feature", "geometry": {"type": "Point", "coordinates": [-0.16345, 51.48077]}, "properties": {"name": "Park Police", "kind": "station"}}, {"type": "Feature", "geometry": {"type": "Point", "coordinates": [-0.0751, 51.55784]}, "properties": {"name": "Stoke Newington Police Station", "kind": "station"}}, {"type": "Feature", "geometry": {"type": "Point", "coordinates": [-0.19772, 51.49708]}, "properties": {"name": "Kensington Police Station", "kind": "station"}}, {"type": "Feature", "geometry": {"type": "Point", "coordinates": [-0.11749, 51.52078]}, "properties": {"name": "Holborn Police Station", "kind": "station"}}, {"type": "Feature", "geometry": {"type": "Point", "coordinates": [-0.00124, 51.63211]}, "properties": {"name": "Chingford Police Station", "kind": "station"}}, {"type": "Feature", "geometry": {"type": "Point", "coordinates": [-0.37768, 51.5297]}, "properties": {"name": "Metropolitan Police", "kind": "station"}}]}