{"type": "FeatureCollection", "features": [{"type": "Feature", "geometry": {"type": "Point", "coordinates": [0.03848, 51.30835]}, "properties": {"station": "Biggin Hill", "calls": 23.72, "mean_added_s": 374.4, "p90_added_s": 483.9, "pushed_over_target": 19.0}}, {"type": "Feature", "geometry": {"type": "Point", "coordinates": [0.11499, 51.39421]}, "properties": {"station": "Cray Valley East & Cray Valley West Wards", "calls": 218.64, "mean_added_s": 263.4, "p90_added_s": 442.0, "pushed_over_target": 136.89}}, {"type": "Feature", "geometry": {"type": "Point", "coordinates": [-0.19048, 51.36116]}, "properties": {"station": "Sutton Police Station", "calls": 323.47, "mean_added_s": 166.5, "p90_added_s": 287.9, "pushed_over_target": 317.44}}, {"type": "Feature", "geometry": {"type": "Point", "coordinates": [0.1493, 51.45702]}, "properties": {"station": "Bexleyheath Police Station", "calls": 291.75, "mean_added_s": 166.0, "p90_added_s": 326.9, "pushed_over_target": 167.53}}, {"type": "Feature", "geometry": {"type": "Point", "coordinates": [-0.16211, 51.64323]}, "properties": {"station": "Safer Neighbourhoods", "calls": 275.17, "mean_added_s": 161.4, "p90_added_s": 284.0, "pushed_over_target": 126.81}}, {"type": "Feature", "geometry": {"type": "Point", "coordinates": [-0.40413, 51.44649]}, "properties": {"station": "Feltham Police Station", "calls": 256.92, "mean_added_s": 155.5, "p90_added_s": 248.1, "pushed_over_target": 205.33}}, {"type": "Feature", "geometry": {"type": "Point", "coordinates": [-0.30685, 51.40818]}, "properties": {"station": "Kingston Police Station", "calls": 257.53, "mean_added_s": 153.9, "p90_added_s": 248.5, "pushed_over_target": 179.0}}, {"type": "Feature", "geometry": {"type": "Point", "coordinates": [-0.11497, 51.33795]}, "properties": {"station": "Purley and Kenley Wards", "calls": 162.72, "mean_added_s": 151.6, "p90_added_s": 250.5, "pushed_over_target": 98.83}}, {"type": "Feature", "geometry": {"type": "Point", "coordinates": [-0.48081, 51.54914]}, "properties": {"station": "Uxbridge Police Station", "calls": 124.0, "mean_added_s": 151.3, "p90_added_s": 301.3, "pushed_over_target": 87.61}}, {"type": "Feature", "geometry": {"type": "Point", "coordinates": [-0.24092, 51.59687]}, "properties": {"station": "Colindale Police Station", "calls": 439.61, "mean_added_s": 143.4, "p90_added_s": 259.6, "pushed_over_target": 241.08}}, {"type": "Feature", "geometry": {"type": "Point", "coordinates": [-0.46789, 51.48246]}, "properties": {"station": "Heathrow Police Station", "calls": 117.86, "mean_added_s": 143.1, "p90_added_s": 245.5, "pushed_over_target": 104.0}}, {"type": "Feature", "geometry": {"type": "Point", "coordinates": [-0.37303, 51.40969]}, "properties": {"station": "police_1779488279", "calls": 31.72, "mean_added_s": 134.3, "p90_added_s": 317.4, "pushed_over_target": 19.25}}, {"type": "Feature", "geometry": {"type": "Point", "coordinates": [0.18621, 51.58203]}, "properties": {"station": "Romford Police Station", "calls": 399.08, "mean_added_s": 123.5, "p90_added_s": 215.8, "pushed_over_target": 251.72}}, {"type": "Feature", "geometry": {"type": "Point", "coordinates": [-0.25462, 51.54189]}, "properties": {"station": "Harlesden Police Station", "calls": 227.36, "mean_added_s": 119.7, "p90_added_s": 205.9, "pushed_over_target": 185.11}}, {"type": "Feature", "geometry": {"type": "Point", "coordinates": [0.02287, 51.61184]}, "properties": {"station": "Woodford Police Station", "calls": 74.94, "mean_added_s": 115.1, "p90_added_s": 223.3, "pushed_over_target": 56.44}}, {"type": "Feature", "geometry": {"type": "Point", "coordinates": [-0.31004, 51.51207]}, "properties": {"station": "Ealing Police Station", "calls": 254.22, "mean_added_s": 114.5, "p90_added_s": 247.4, "pushed_over_target": 124.83}}, {"type": "Feature", "geometry": {"type": "Point", "coordinates": [-0.36422, 51.46908]}, "properties": {"station": "Hounslow Police Station", "calls": 306.64, "mean_added_s": 110.4, "p90_added_s": 223.6, "pushed_over_target": 151.25}}, {"type": "Feature", "geometry": {"type": "Point", "coordinates": [0.0805, 51.5884]}, "properties": {"station": "Barkingside Police Station", "calls": 237.72, "mean_added_s": 108.1, "p90_added_s": 241.2, "pushed_over_target": 73.25}}, {"type": "Feature", "geometry": {"type": "Point", "coordinates": [-0.06108, 51.62233]}, "properties": {"station": "Edmonton Police Station", "calls": 455.92, "mean_added_s": 107.9, "p90_added_s": 202.1, "pushed_over_target": 256.92}}, {"type": "Feature", "geometry": {"type": "Point", "coordinates": [0.16546, 51.54503]}, "properties": {"station": "Dagenham Police Station", "calls": 303.69, "mean_added_s": 105.8, "p90_added_s": 188.7, "pushed_over_target": 195.08}}, {"type": "Feature", "geometry": {"type": "Point", "coordinates": [-0.32938, 51.44793]}, "properties": {"station": "Twickenham Police Station", "calls": 157.06, "mean_added_s": 104.9, "p90_added_s": 271.3, "pushed_over_target": 85.44}}, {"type": "Feature", "geometry": {"type": "Point", "coordinates": [0.01788, 51.39934]}, "properties": {"station": "Bromley Police Station", "calls": 279.33, "mean_added_s": 103.6, "p90_added_s": 240.4, "pushed_over_target": 94.5}}, {"type": "Feature", "geometry": {"type": "Point", "coordinates": [-0.1305, 51.39947]}, "properties": {"station": "Pollards Hill Police Station", "calls": 196.81, "mean_added_s": 102.4, "p90_added_s": 218.5, "pushed_over_target": 29.61}}, {"type": "Feature", "geometry": {"type": "Point", "coordinates": [-0.26478, 51.56476]}, "properties": {"station": "police_729403095", "calls": 220.28, "mean_added_s": 102.2, "p90_added_s": 191.2, "pushed_over_target": 116.89}}, {"type": "Feature", "geometry": {"type": "Point", "coordinates": [-0.06469, 51.47445]}, "properties": {"station": "Peckham Police Station", "calls": 331.75, "mean_added_s": 100.8, "p90_added_s": 234.2, "pushed_over_target": 151.56}}, {"type": "Feature", "geometry": {"type": "Point", "coordinates": [-0.08442, 51.41975]}, "properties": {"station": "Gipsy Hill police station", "calls": 253.67, "mean_added_s": 99.5, "p90_added_s": 190.3, "pushed_over_target": 137.86}}, {"type": "Feature", "geometry": {"type": "Point", "coordinates": [-0.0751, 51.55784]}, "properties": {"station": "Stoke Newington Police Station", "calls": 399.0, "mean_added_s": 98.1, "p90_added_s": 195.5, "pushed_over_target": 252.14}}, {"type": "Feature", "geometry": {"type": "Point", "coordinates": [-0.16221, 51.46467]}, "properties": {"station": "Lavender Hill Police Station", "calls": 66.06, "mean_added_s": 97.8, "p90_added_s": 141.0, "pushed_over_target": 0.0}}, {"type": "Feature", "geometry": {"type": "Point", "coordinates": [-0.27487, 51.50877]}, "properties": {"station": "MPS Acton", "calls": 264.28, "mean_added_s": 97.4, "p90_added_s": 210.2, "pushed_over_target": 181.25}}, {"type": "Feature", "geometry": {"type": "Point", "coordinates": [-0.06963, 51.59083]}, "properties": {"station": "Tottenham Police Station", "calls": 292.19, "mean_added_s": 96.4, "p90_added_s": 137.9, "pushed_over_target": 7.56}}, {"type": "Feature", "geometry": {"type": "Point", "coordinates": [-0.03367, 51.35735]}, "properties": {"station": "police_111151034", "calls": 106.92, "mean_added_s": 93.3, "p90_added_s": 163.0, "pushed_over_target": 32.56}}, {"type": "Feature", "geometry": {"type": "Point", "coordinates": [-0.20528, 51.53485]}, "properties": {"station": "Kilburn Police station", "calls": 276.0, "mean_added_s": 90.5, "p90_added_s": 141.5, "pushed_over_target": 34.06}}, {"type": "Feature", "geometry": {"type": "Point", "coordinates": [0.19127, 51.52053]}, "properties": {"station": "Rainham Police Station", "calls": 85.94, "mean_added_s": 89.7, "p90_added_s": 180.9, "pushed_over_target": 25.44}}, {"type": "Feature", "geometry": {"type": "Point", "coordinates": [0.08017, 51.56014]}, "properties": {"station": "Ilford Police Station", "calls": 423.11, "mean_added_s": 88.1, "p90_added_s": 208.4, "pushed_over_target": 65.17}}, {"type": "Feature", "geometry": {"type": "Point", "coordinates": [-0.38498, 51.5958]}, "properties": {"station": "Pinner Police Station", "calls": 109.22, "mean_added_s": 88.1, "p90_added_s": 203.9, "pushed_over_target": 65.39}}, {"type": "Feature", "geometry": {"type": "Point", "coordinates": [-0.43502, 51.52506]}, "properties": {"station": "Hayes Police Station", "calls": 336.69, "mean_added_s": 87.5, "p90_added_s": 201.1, "pushed_over_target": 185.89}}, {"type": "Feature", "geometry": {"type": "Point", "coordinates": [0.24912, 51.5554]}, "properties": {"station": "Metropolitan Police Upminster & Cranham Wards", "calls": 40.97, "mean_added_s": 85.5, "p90_added_s": 179.0, "pushed_over_target": 11.69}}, {"type": "Feature", "geometry": {"type": "Point", "coordinates": [-0.18654, 51.40848]}, "properties": {"station": "Roads and Transport Policing Command West Garage (TDV)", "calls": 174.58, "mean_added_s": 84.5, "p90_added_s": 149.1, "pushed_over_target": 46.25}}, {"type": "Feature", "geometry": {"type": "Point", "coordinates": [-0.12963, 51.43034]}, "properties": {"station": "Streatham Police Station", "calls": 222.67, "mean_added_s": 84.1, "p90_added_s": 193.6, "pushed_over_target": 93.47}}, {"type": "Feature", "geometry": {"type": "Point", "coordinates": [-0.22639, 51.40921]}, "properties": {"station": "Dundonald, Raynes Park & West Barnes Wards Metropolitan Police Station", "calls": 141.81, "mean_added_s": 82.9, "p90_added_s": 156.3, "pushed_over_target": 49.81}}, {"type": "Feature", "geometry": {"type": "Point", "coordinates": [0.09562, 51.4865]}, "properties": {"station": "Plumstead Police Station", "calls": 445.11, "mean_added_s": 82.3, "p90_added_s": 201.8, "pushed_over_target": 146.17}}, {"type": "Feature", "geometry": {"type": "Point", "coordinates": [0.10472, 51.52855]}, "properties": {"station": "police_13475138021", "calls": 117.33, "mean_added_s": 80.1, "p90_added_s": 141.5, "pushed_over_target": 36.22}}, {"type": "Feature", "geometry": {"type": "Point", "coordinates": [-0.03192, 51.43978]}, "properties": {"station": "police_8563297629", "calls": 177.53, "mean_added_s": 79.8, "p90_added_s": 157.9, "pushed_over_target": 52.17}}, {"type": "Feature", "geometry": {"type": "Point", "coordinates": [0.0307, 51.54652]}, "properties": {"station": "Forest Gate Police Station", "calls": 203.67, "mean_added_s": 79.5, "p90_added_s": 123.1, "pushed_over_target": 2.5}}, {"type": "Feature", "geometry": {"type": "Point", "coordinates": [-0.00987, 51.4634]}, "properties": {"station": "Lewisham Police Station", "calls": 412.86, "mean_added_s": 79.5, "p90_added_s": 149.3, "pushed_over_target": 38.5}}, {"type": "Feature", "geometry": {"type": "Point", "coordinates": [-0.38625, 51.48872]}, "properties": {"station": "police_1231129700", "calls": 174.61, "mean_added_s": 77.7, "p90_added_s": 137.9, "pushed_over_target": 52.11}}, {"type": "Feature", "geometry": {"type": "Point", "coordinates": [-0.37768, 51.5297]}, "properties": {"station": "Metropolitan Police", "calls": 139.47, "mean_added_s": 77.1, "p90_added_s": 184.7, "pushed_over_target": 0.0}}, {"type": "Feature", "geometry": {"type": "Point", "coordinates": [-0.37207, 51.51109]}, "properties": {"station": "Southall Police Station", "calls": 221.11, "mean_added_s": 76.9, "p90_added_s": 126.7, "pushed_over_target": 31.94}}, {"type": "Feature", "geometry": {"type": "Point", "coordinates": [-0.02519, 51.60818]}, "properties": {"station": "Larkswood & Valley Police", "calls": 66.92, "mean_added_s": 75.6, "p90_added_s": 131.6, "pushed_over_target": 0.0}}, {"type": "Feature", "geometry": {"type": "Point", "coordinates": [-0.22958, 51.45529]}, "properties": {"station": "West Putney Ward Metropolitain Police", "calls": 121.17, "mean_added_s": 74.7, "p90_added_s": 115.4, "pushed_over_target": 21.97}}, {"type": "Feature", "geometry": {"type": "Point", "coordinates": [-0.01517, 51.37573]}, "properties": {"station": "West Wickham Ward", "calls": 106.97, "mean_added_s": 74.5, "p90_added_s": 132.8, "pushed_over_target": 24.44}}, {"type": "Feature", "geometry": {"type": "Point", "coordinates": [-0.42748, 51.57604]}, "properties": {"station": "Ruislip Police Station", "calls": 45.94, "mean_added_s": 74.5, "p90_added_s": 139.0, "pushed_over_target": 10.17}}, {"type": "Feature", "geometry": {"type": "Point", "coordinates": [-0.00124, 51.63211]}, "properties": {"station": "Chingford Police Station", "calls": 190.94, "mean_added_s": 74.3, "p90_added_s": 169.9, "pushed_over_target": 23.67}}, {"type": "Feature", "geometry": {"type": "Point", "coordinates": [-0.33366, 51.57795]}, "properties": {"station": "Harrow Central Police Station", "calls": 268.08, "mean_added_s": 73.8, "p90_added_s": 103.7, "pushed_over_target": 85.36}}, {"type": "Feature", "geometry": {"type": "Point", "coordinates": [-0.30567, 51.55154]}, "properties": {"station": "Wembley Police Station", "calls": 163.75, "mean_added_s": 73.8, "p90_added_s": 111.0, "pushed_over_target": 79.28}}, {"type": "Feature", "geometry": {"type": "Point", "coordinates": [-0.20343, 51.42121]}, "properties": {"station": "Wimbledon Police Station", "calls": 52.14, "mean_added_s": 73.7, "p90_added_s": 97.7, "pushed_over_target": 0.0}}, {"type": "Feature", "geometry": {"type": "Point", "coordinates": [-0.18709, 51.43746]}, "properties": {"station": "Earlsfield Police Station", "calls": 188.28, "mean_added_s": 72.4, "p90_added_s": 99.2, "pushed_over_target": 0.0}}, {"type": "Feature", "geometry": {"type": "Point", "coordinates": [-0.36747, 51.5489]}, "properties": {"station": "Metropolitan Police ward office", "calls": 140.28, "mean_added_s": 71.3, "p90_added_s": 133.8, "pushed_over_target": 10.17}}, {"type": "Feature", "geometry": {"type": "Point", "coordinates": [-0.14401, 51.52655]}, "properties": {"station": "Albany Street Police Station", "calls": 13.0, "mean_added_s": 68.9, "p90_added_s": 68.9, "pushed_over_target": 0.0}}, {"type": "Feature", "geometry": {"type": "Point", "coordinates": [-0.1108, 51.50245]}, "properties": {"station": "British Transport Police", "calls": 180.86, "mean_added_s": 67.7, "p90_added_s": 96.1, "pushed_over_target": 0.0}}, {"type": "Feature", "geometry": {"type": "Point", "coordinates": [-0.02391, 51.528]}, "properties": {"station": "Bow Road Police Station", "calls": 176.64, "mean_added_s": 67.6, "p90_added_s": 89.1, "pushed_over_target": 0.0}}, {"type": "Feature", "geometry": {"type": "Point", "coordinates": [-0.11083, 51.5338]}, "properties": {"station": "Islington Police Station", "calls": 169.89, "mean_added_s": 67.5, "p90_added_s": 83.2, "pushed_over_target": 0.0}}, {"type": "Feature", "geometry": {"type": "Point", "coordinates": [-0.01449, 51.43081]}, "properties": {"station": "Catford Police Station", "calls": 207.61, "mean_added_s": 65.8, "p90_added_s": 114.6, "pushed_over_target": 54.0}}, {"type": "Feature", "geometry": {"type": "Point", "coordinates": [-0.1108, 51.50245]}, "properties": {"station": "British Transport Police", "calls": 61.19, "mean_added_s": 63.0, "p90_added_s": 63.0, "pushed_over_target": 0.0}}, {"type": "Feature", "geometry": {"type": "Point", "coordinates": [-0.19622, 51.55367]}, "properties": {"station": "West Hampstead Police Station", "calls": 188.94, "mean_added_s": 63.0, "p90_added_s": 119.8, "pushed_over_target": 75.03}}, {"type": "Feature", "geometry": {"type": "Point", "coordinates": [-0.10573, 51.49137]}, "properties": {"station": "police_487978258", "calls": 40.64, "mean_added_s": 62.4, "p90_added_s": 62.4, "pushed_over_target": 0.0}}, {"type": "Feature", "geometry": {"type": "Point", "coordinates": [-0.1712, 51.52293]}, "properties": {"station": "police_6493661730", "calls": 196.81, "mean_added_s": 61.5, "p90_added_s": 131.5, "pushed_over_target": 0.0}}, {"type": "Feature", "geometry": {"type": "Point", "coordinates": [-0.34848, 51.56846]}, "properties": {"station": "police_135561011", "calls": 117.5, "mean_added_s": 61.4, "p90_added_s": 136.3, "pushed_over_target": 0.0}}, {"type": "Feature", "geometry": {"type": "Point", "coordinates": [-0.41637, 51.55701]}, "properties": {"station": "RAF Police", "calls": 24.64, "mean_added_s": 61.0, "p90_added_s": 143.1, "pushed_over_target": 9.61}}, {"type": "Feature", "geometry": {"type": "Point", "coordinates": [-0.01241, 51.57601]}, "properties": {"station": "police_452820422", "calls": 244.92, "mean_added_s": 60.5, "p90_added_s": 132.8, "pushed_over_target": 9.64}}, {"type": "Feature", "geometry": {"type": "Point", "coordinates": [0.06372, 51.49983]}, "properties": {"station": "police_222885445", "calls": 282.58, "mean_added_s": 58.6, "p90_added_s": 163.0, "pushed_over_target": 88.36}}, {"type": "Feature", "geometry": {"type": "Point", "coordinates": [-0.09567, 51.37059]}, "properties": {"station": "Croydon Police Station", "calls": 241.69, "mean_added_s": 57.1, "p90_added_s": 112.0, "pushed_over_target": 0.0}}, {"type": "Feature", "geometry": {"type": "Point", "coordinates": [-0.14257, 51.45288]}, "properties": {"station": "police_615494004", "calls": 112.25, "mean_added_s": 56.9, "p90_added_s": 120.0, "pushed_over_target": 0.0}}, {"type": "Feature", "geometry": {"type": "Point", "coordinates": [0.21994, 51.55915]}, "properties": {"station": "Hornchurch Police Station", "calls": 43.92, "mean_added_s": 56.9, "p90_added_s": 83.5, "pushed_over_target": 0.0}}, {"type": "Feature", "geometry": {"type": "Point", "coordinates": [0.20008, 51.5495]}, "properties": {"station": "Elm Park Ward", "calls": 58.61, "mean_added_s": 56.8, "p90_added_s": 138.8, "pushed_over_target": 0.0}}, {"type": "Feature", "geometry": {"type": "Point", "coordinates": [0.02535, 51.52285]}, "properties": {"station": "Plaistow Police Station", "calls": 259.72, "mean_added_s": 55.6, "p90_added_s": 117.1, "pushed_over_target": 0.0}}, {"type": "Feature", "geometry": {"type": "Point", "coordinates": [-0.07141, 51.51823]}, "properties": {"station": "Spitalfields and Bangaltown and Weaversguards", "calls": 91.5, "mean_added_s": 55.2, "p90_added_s": 55.2, "pushed_over_target": 0.0}}, {"type": "Feature", "geometry": {"type": "Point", "coordinates": [-0.31724, 51.55907]}, "properties": {"station": "Metropolitan Police (Sudbury Ward)", "calls": 35.31, "mean_added_s": 53.1, "p90_added_s": 74.5, "pushed_over_target": 0.0}}, {"type": "Feature", "geometry": {"type": "Point", "coordinates": [-0.11248, 51.60296]}, "properties": {"station": "Wood Green Police Station", "calls": 128.78, "mean_added_s": 52.0, "p90_added_s": 85.4, "pushed_over_target": 39.78}}, {"type": "Feature", "geometry": {"type": "Point", "coordinates": [-0.12481, 51.57954]}, "properties": {"station": "police_3662044364", "calls": 109.89, "mean_added_s": 50.3, "p90_added_s": 97.7, "pushed_over_target": 11.56}}, {"type": "Feature", "geometry": {"type": "Point", "coordinates": [-0.09936, 51.3854]}, "properties": {"station": "Croydon Custody Centre", "calls": 391.08, "mean_added_s": 48.3, "p90_added_s": 105.5, "pushed_over_target": 28.36}}, {"type": "Feature", "geometry": {"type": "Point", "coordinates": [-0.12077, 51.49016]}, "properties": {"station": "National Crime Agency", "calls": 76.08, "mean_added_s": 47.3, "p90_added_s": 55.0, "pushed_over_target": 0.0}}, {"type": "Feature", "geometry": {"type": "Point", "coordinates": [-0.00257, 51.5418]}, "properties": {"station": "Stratford Police Station", "calls": 150.17, "mean_added_s": 47.1, "p90_added_s": 62.6, "pushed_over_target": 0.0}}, {"type": "Feature", "geometry": {"type": "Point", "coordinates": [-0.20355, 51.50142]}, "properties": {"station": "Parks Police", "calls": 17.36, "mean_added_s": 46.4, "p90_added_s": 46.4, "pushed_over_target": 0.0}}, {"type": "Feature", "geometry": {"type": "Point", "coordinates": [-0.11749, 51.52078]}, "properties": {"station": "Holborn Police Station", "calls": 118.58, "mean_added_s": 46.2, "p90_added_s": 55.9, "pushed_over_target": 0.0}}, {"type": "Feature", "geometry": {"type": "Point", "coordinates": [-0.05328, 51.52821]}, "properties": {"station": "Bethnal Green Police Station", "calls": 350.06, "mean_added_s": 46.1, "p90_added_s": 94.5, "pushed_over_target": 0.0}}, {"type": "Feature", "geometry": {"type": "Point", "coordinates": [-0.19863, 51.45746]}, "properties": {"station": "Wandsworth Police Station", "calls": 125.5, "mean_added_s": 45.4, "p90_added_s": 97.4, "pushed_over_target": 0.0}}, {"type": "Feature", "geometry": {"type": "Point", "coordinates": [-0.17147, 51.5545]}, "properties": {"station": "Hampstead Police Station", "calls": 122.47, "mean_added_s": 43.9, "p90_added_s": 102.6, "pushed_over_target": 1.03}}, {"type": "Feature", "geometry": {"type": "Point", "coordinates": [-0.16558, 51.50811]}, "properties": {"station": "The Old Police House", "calls": 109.78, "mean_added_s": 43.0, "p90_added_s": 140.3, "pushed_over_target": 0.0}}, {"type": "Feature", "geometry": {"type": "Point", "coordinates": [-0.1108, 51.50245]}, "properties": {"station": "British Transport Police", "calls": 74.81, "mean_added_s": 42.6, "p90_added_s": 64.9, "pushed_over_target": 0.0}}, {"type": "Feature", "geometry": {"type": "Point", "coordinates": [-0.1108, 51.50245]}, "properties": {"station": "British Transport Police", "calls": 116.08, "mean_added_s": 42.6, "p90_added_s": 52.4, "pushed_over_target": 0.0}}, {"type": "Feature", "geometry": {"type": "Point", "coordinates": [0.00296, 51.47305]}, "properties": {"station": "Greenwich Park Police", "calls": 96.69, "mean_added_s": 42.2, "p90_added_s": 86.5, "pushed_over_target": 33.53}}, {"type": "Feature", "geometry": {"type": "Point", "coordinates": [-0.16345, 51.48077]}, "properties": {"station": "Park Police", "calls": 191.25, "mean_added_s": 41.2, "p90_added_s": 98.7, "pushed_over_target": 0.0}}, {"type": "Feature", "geometry": {"type": "Point", "coordinates": [-0.13292, 51.47133]}, "properties": {"station": "police_1726841079", "calls": 104.69, "mean_added_s": 40.0, "p90_added_s": 113.5, "pushed_over_target": 0.0}}, {"type": "Feature", "geometry": {"type": "Point", "coordinates": [-0.00257, 51.5418]}, "properties": {"station": "Stratford Police Station", "calls": 44.42, "mean_added_s": 39.5, "p90_added_s": 39.5, "pushed_over_target": 0.0}}, {"type": "Feature", "geometry": {"type": "Point", "coordinates": [0.07345, 51.52994]}, "properties": {"station": "Fresh Wharf Custody Base", "calls": 109.53, "mean_added_s": 39.2, "p90_added_s": 102.3, "pushed_over_target": 0.0}}, {"type": "Feature", "geometry": {"type": "Point", "coordinates": [-0.09755, 51.48936]}, "properties": {"station": "Walworth Police Station", "calls": 182.83, "mean_added_s": 38.6, "p90_added_s": 62.2, "pushed_over_target": 0.0}}, {"type": "Feature", "geometry": {"type": "Point", "coordinates": [-0.09886, 51.52449]}, "properties": {"station": "Clerkenwell and Bunhill Wards Police Station", "calls": 149.5, "mean_added_s": 38.5, "p90_added_s": 47.7, "pushed_over_target": 0.0}}, {"type": "Feature", "geometry": {"type": "Point", "coordinates": [-0.01254, 51.50864]}, "properties": {"station": "police_196769282", "calls": 267.11, "mean_added_s": 38.5, "p90_added_s": 94.2, "pushed_over_target": 7.94}}, {"type": "Feature", "geometry": {"type": "Point", "coordinates": [-0.10244, 51.58977]}, "properties": {"station": "Turnpike Parade Safer Neighbourhood Team Base", "calls": 211.33, "mean_added_s": 37.5, "p90_added_s": 115.1, "pushed_over_target": 0.0}}, {"type": "Feature", "geometry": {"type": "Point", "coordinates": [-0.37768, 51.5297]}, "properties": {"station": "Metropolitan Police", "calls": 82.81, "mean_added_s": 36.2, "p90_added_s": 60.3, "pushed_over_target": 0.0}}, {"type": "Feature", "geometry": {"type": "Point", "coordinates": [-0.09569, 51.4996]}, "properties": {"station": "Overseas Visitors Records Office", "calls": 61.44, "mean_added_s": 35.5, "p90_added_s": 35.5, "pushed_over_target": 0.0}}, {"type": "Feature", "geometry": {"type": "Point", "coordinates": [-0.14201, 51.5497]}, "properties": {"station": "Kentish Town Police Station", "calls": 169.92, "mean_added_s": 35.4, "p90_added_s": 73.3, "pushed_over_target": 0.0}}, {"type": "Feature", "geometry": {"type": "Point", "coordinates": [-0.1108, 51.50245]}, "properties": {"station": "British Transport Police", "calls": 79.11, "mean_added_s": 34.8, "p90_added_s": 73.7, "pushed_over_target": 0.0}}, {"type": "Feature", "geometry": {"type": "Point", "coordinates": [-0.14869, 51.48779]}, "properties": {"station": "National Visual Forensics Centre", "calls": 140.36, "mean_added_s": 33.3, "p90_added_s": 97.3, "pushed_over_target": 0.0}}, {"type": "Feature", "geometry": {"type": "Point", "coordinates": [0.06761, 51.54123]}, "properties": {"station": "Hertford House", "calls": 185.97, "mean_added_s": 33.2, "p90_added_s": 114.8, "pushed_over_target": 0.0}}, {"type": "Feature", "geometry": {"type": "Point", "coordinates": [-0.11672, 51.56215]}, "properties": {"station": "Holloway Police Station", "calls": 182.44, "mean_added_s": 32.9, "p90_added_s": 75.9, "pushed_over_target": 0.0}}, {"type": "Feature", "geometry": {"type": "Point", "coordinates": [-0.20294, 51.5087]}, "properties": {"station": "Notting Hill Police Station", "calls": 275.22, "mean_added_s": 30.9, "p90_added_s": 49.7, "pushed_over_target": 0.0}}, {"type": "Feature", "geometry": {"type": "Point", "coordinates": [-0.22315, 51.49099]}, "properties": {"station": "British Transport Police Hammersmith", "calls": 147.53, "mean_added_s": 30.0, "p90_added_s": 38.4, "pushed_over_target": 5.81}}, {"type": "Feature", "geometry": {"type": "Point", "coordinates": [-0.026, 51.51053]}, "properties": {"station": "Limehouse Police Station", "calls": 246.31, "mean_added_s": 28.3, "p90_added_s": 68.7, "pushed_over_target": 0.0}}, {"type": "Feature", "geometry": {"type": "Point", "coordinates": [0.0799, 51.53651]}, "properties": {"station": "Barking Police", "calls": 79.44, "mean_added_s": 28.2, "p90_added_s": 33.8, "pushed_over_target": 0.0}}, {"type": "Feature", "geometry": {"type": "Point", "coordinates": [-0.10281, 51.51706]}, "properties": {"station": "Snow Hill Police Station", "calls": 38.03, "mean_added_s": 27.8, "p90_added_s": 27.8, "pushed_over_target": 0.0}}, {"type": "Feature", "geometry": {"type": "Point", "coordinates": [-0.22445, 51.49482]}, "properties": {"station": "Hammersmith Police Station", "calls": 177.83, "mean_added_s": 27.3, "p90_added_s": 33.9, "pushed_over_target": 35.86}}, {"type": "Feature", "geometry": {"type": "Point", "coordinates": [-0.11668, 51.59533]}, "properties": {"station": "Quicksilver Patrol Base", "calls": 72.64, "mean_added_s": 26.3, "p90_added_s": 46.8, "pushed_over_target": 0.0}}, {"type": "Feature", "geometry": {"type": "Point", "coordinates": [-0.19772, 51.49708]}, "properties": {"station": "Kensington Police Station", "calls": 156.42, "mean_added_s": 26.2, "p90_added_s": 46.8, "pushed_over_target": 0.0}}, {"type": "Feature", "geometry": {"type": "Point", "coordinates": [-0.02775, 51.58983]}, "properties": {"station": "police_2139997784", "calls": 93.58, "mean_added_s": 26.1, "p90_added_s": 41.5, "pushed_over_target": 0.0}}, {"type": "Feature", "geometry": {"type": "Point", "coordinates": [-0.09139, 51.51547]}, "properties": {"station": "City of London Police", "calls": 71.11, "mean_added_s": 25.0, "p90_added_s": 25.3, "pushed_over_target": 0.0}}, {"type": "Feature", "geometry": {"type": "Point", "coordinates": [-0.02444, 51.5841]}, "properties": {"station": "police_160391564", "calls": 74.92, "mean_added_s": 23.9, "p90_added_s": 43.7, "pushed_over_target": 2.72}}, {"type": "Feature", "geometry": {"type": "Point", "coordinates": [-0.0794, 51.5175]}, "properties": {"station": "Bishopsgate Police Station", "calls": 77.31, "mean_added_s": 22.8, "p90_added_s": 22.8, "pushed_over_target": 0.0}}, {"type": "Feature", "geometry": {"type": "Point", "coordinates": [-0.12427, 51.50276]}, "properties": {"station": "New Scotland Yard", "calls": 217.5, "mean_added_s": 20.8, "p90_added_s": 49.1, "pushed_over_target": 0.0}}, {"type": "Feature", "geometry": {"type": "Point", "coordinates": [-0.14131, 51.51147]}, "properties": {"station": "West End Central Police Station", "calls": 152.75, "mean_added_s": 19.4, "p90_added_s": 19.4, "pushed_over_target": 0.0}}, {"type": "Feature", "geometry": {"type": "Point", "coordinates": [-0.06004, 51.50281]}, "properties": {"station": "Metropolitan Police Service Boat Yard", "calls": 103.19, "mean_added_s": 13.0, "p90_added_s": 19.5, "pushed_over_target": 0.0}}, {"type": "Feature", "geometry": {"type": "Point", "coordinates": [-0.1131, 51.46477]}, "properties": {"station": "Brixton Police Station", "calls": 182.42, "mean_added_s": 12.4, "p90_added_s": 27.3, "pushed_over_target": 0.0}}, {"type": "Feature", "geometry": {"type": "Point", "coordinates": [-0.11291, 51.46153]}, "properties": {"station": "Metropolitan Police Coldharbour Ward", "calls": 181.28, "mean_added_s": 12.2, "p90_added_s": 33.8, "pushed_over_target": 1.42}}, {"type": "Feature", "geometry": {"type": "Point", "coordinates": [-0.14074, 51.53927]}, "properties": {"station": "Camden Town with Primrose Hill Ward", "calls": 102.97, "mean_added_s": 11.4, "p90_added_s": 16.4, "pushed_over_target": 0.0}}, {"type": "Feature", "geometry": {"type": "Point", "coordinates": [-0.13963, 51.54089]}, "properties": {"station": "British Transport Police Force Headquarters", "calls": 82.58, "mean_added_s": 7.3, "p90_added_s": 17.4, "pushed_over_target": 0.0}}, {"type": "Feature", "geometry": {"type": "Point", "coordinates": [-0.05858, 51.50313]}, "properties": {"station": "Metropolitan Police Service Marine Unit", "calls": 75.56, "mean_added_s": 3.1, "p90_added_s": 3.6, "pushed_over_target": 0.0}}, {"type": "Feature", "geometry": {"type": "Point", "coordinates": [-0.08117, 51.51789]}, "properties": {"station": "police_1390303288", "calls": 107.42, "mean_added_s": 1.6, "p90_added_s": 5.3, "pushed_over_target": 0.0}}]}